{"type": "FeatureCollection", "features": [{"type": "Feature", "properties": {"fips": "11001001002", "gap_national": -53.3, "gap_stratum": -55.4, "burden": 2.0, "capacity": 53.9, "svi": 0.17, "top_decile_gap": 0, "stratum": "metropolitan", "scored": 1}, "geometry": {"type": "Polygon", "coordinates": [[[-77.0785, 38.9458], [-77.0724, 38.9335], [-77.0798, 38.9334], [-77.0856, 38.9382], [-77.0785, 38.9458]]]}}, {"type": "Feature", "properties": {"fips": "11001002801", "gap_national": -20.5, "gap_stratum": -21.5, "burden": 8.7, "capacity": 32.0, "svi": 0.73, "top_decile_gap": 0, "stratum": "metropolitan", "scored": 1}, "geometry": {"type": "Polygon", "coordinates": [[[-77.0364, 38.9374], [-77.0327, 38.9371], [-77.0327, 38.9319], [-77.0364, 38.9374]]]}}, {"type": "Feature", "properties": {"fips": "11001003100", "gap_national": -38.3, "gap_stratum": -40.8, "burden": 1.4, "capacity": 43.2, "svi": 0.32, "top_decile_gap": 0, "stratum": "metropolitan", "scored": 1}, "geometry": {"type": "Polygon", "coordinates": [[[-77.0243, 38.9363], [-77.023, 38.9272], [-77.027, 38.9267], [-77.0283, 38.9318], [-77.0243, 38.9363]]]}}, {"type": "Feature", "properties": {"fips": "11001004001", "gap_national": -54.7, "gap_stratum": -56.8, "burden": 1.4, "capacity": 54.7, "svi": 0.04, "top_decile_gap": 0, "stratum": "metropolitan", "scored": 1}, "geometry": {"type": "Polygon", "coordinates": [[[-77.0486, 38.9233], [-77.0427, 38.9227], [-77.0463, 38.916], [-77.0502, 38.9212], [-77.0486, 38.9233]]]}}, {"type": "Feature", "properties": {"fips": "11001010500", "gap_national": -38.7, "gap_stratum": -39.1, "burden": 15.1, "capacity": 50.6, "svi": 0.44, "top_decile_gap": 0, "stratum": "metropolitan", "scored": 1}, "geometry": {"type": "Polygon", "coordinates": [[[-77.0175, 38.8876], [-77.0138, 38.8876], [-77.0091, 38.8839], [-77.0091, 38.8765], [-77.0152, 38.8765], [-77.0152, 38.8793], [-77.0175, 38.8793], [-77.0175, 38.8876]]]}}, {"type": "Feature", "properties": {"fips": "11001004600", "gap_national": -42.6, "gap_stratum": -44.7, "burden": 4.9, "capacity": 47.6, "svi": 0.4, "top_decile_gap": 0, "stratum": "metropolitan", "scored": 1}, "geometry": {"type": "Polygon", "coordinates": [[[-77.009, 38.9108], [-77.009, 38.9073], [-77.0148, 38.9054], [-77.0181, 38.9146], [-77.009, 38.9108]]]}}, {"type": "Feature", "properties": {"fips": "11001008803", "gap_national": -14.8, "gap_stratum": -15.5, "burden": 8.7, "capacity": 26.7, "svi": 0.83, "top_decile_gap": 0, "stratum": "metropolitan", "scored": 1}, "geometry": {"type": "Polygon", "coordinates": [[[-76.9808, 38.9172], [-76.9782, 38.9173], [-76.9931, 38.904], [-77.0025, 38.908], [-77.0017, 38.91], [-76.9808, 38.9172]]]}}, {"type": "Feature", "properties": {"fips": "11001009507", "gap_national": -44.2, "gap_stratum": -36.1, "burden": 43.7, "capacity": 77.7, "svi": 0.44, "top_decile_gap": 0, "stratum": "metropolitan", "scored": 1}, "geometry": {"type": "Polygon", "coordinates": [[[-76.9975, 38.9615], [-76.9919, 38.9572], [-77.0003, 38.9553], [-77.0023, 38.9568], [-76.9975, 38.9615]]]}}, {"type": "Feature", "properties": {"fips": "11001009509", "gap_national": -68.4, "gap_stratum": -63.7, "burden": 24.6, "capacity": 79.9, "svi": 0.24, "top_decile_gap": 0, "stratum": "metropolitan", "scored": 1}, "geometry": {"type": "Polygon", "coordinates": [[[-76.9893, 38.9524], [-76.9889, 38.9463], [-77.0, 38.9463], [-77.002, 38.9511], [-76.9893, 38.9524]]]}}, {"type": "Feature", "properties": {"fips": "11001005303", "gap_national": -49.0, "gap_stratum": -51.4, "burden": 1.3, "capacity": 50.8, "svi": 0.15, "top_decile_gap": 0, "stratum": "metropolitan", "scored": 1}, "geometry": {"type": "Polygon", "coordinates": [[[-77.0365, 38.9111], [-77.0362, 38.9071], [-77.0427, 38.9094], [-77.0365, 38.9111]]]}}, {"type": "Feature", "properties": {"fips": "11001010202", "gap_national": -48.2, "gap_stratum": -49.8, "burden": 7.3, "capacity": 52.4, "svi": 0.34, "top_decile_gap": 0, "stratum": "metropolitan", "scored": 1}, "geometry": {"type": "Polygon", "coordinates": [[[-77.032, 38.8876], [-77.0175, 38.8876], [-77.0175, 38.8793], [-77.0219, 38.8793], [-77.0219, 38.8765], [-77.0326, 38.8828], [-77.032, 38.8876]]]}}, {"type": "Feature", "properties": {"fips": "11001005003", "gap_national": -39.5, "gap_stratum": -41.9, "burden": 2.5, "capacity": 44.4, "svi": 0.33, "top_decile_gap": 0, "stratum": "metropolitan", "scored": 1}, "geometry": {"type": "Polygon", "coordinates": [[[-77.0296, 38.9091], [-77.0296, 38.9048], [-77.0315, 38.9055], [-77.032, 38.9096], [-77.0296, 38.9091]]]}}, {"type": "Feature", "properties": {"fips": "11001010201", "gap_national": -42.2, "gap_stratum": -44.7, "burden": 1.4, "capacity": 46.1, "svi": 0.28, "top_decile_gap": 0, "stratum": "metropolitan", "scored": 1}, "geometry": {"type": "Polygon", "coordinates": [[[-77.0152, 38.8793], [-77.0152, 38.8765], [-77.0199, 38.8765], [-77.0219, 38.8793], [-77.0152, 38.8793]]]}}, {"type": "Feature", "properties": {"fips": "11001000101", "gap_national": -63.3, "gap_stratum": -64.6, "burden": 1.9, "capacity": 60.4, "svi": 0.05, "top_decile_gap": 0, "stratum": "metropolitan", "scored": 1}, "geometry": {"type": "Polygon", "coordinates": [[[-77.0512, 38.9108], [-77.0501, 38.9096], [-77.057, 38.9052], [-77.0571, 38.9105], [-77.0512, 38.9108]]]}}, {"type": "Feature", "properties": {"fips": "11001003702", "gap_national": -14.4, "gap_stratum": -14.5, "burden": 13.5, "capacity": 30.2, "svi": 0.81, "top_decile_gap": 0, "stratum": "metropolitan", "scored": 1}, "geometry": {"type": "Polygon", "coordinates": [[[-77.0324, 38.9266], [-77.0321, 38.9236], [-77.0365, 38.9233], [-77.0365, 38.9263], [-77.0324, 38.9266]]]}}, {"type": "Feature", "properties": {"fips": "11001008100", "gap_national": -56.1, "gap_stratum": -58.2, "burden": 1.2, "capacity": 55.6, "svi": 0.07, "top_decile_gap": 0, "stratum": "metropolitan", "scored": 1}, "geometry": {"type": "Polygon", "coordinates": [[[-76.995, 38.8954], [-76.9902, 38.8973], [-76.9902, 38.8904], [-76.995, 38.8903], [-76.995, 38.8954]]]}}, {"type": "Feature", "properties": {"fips": "11001000502", "gap_national": -68.2, "gap_stratum": -68.8, "burden": 3.4, "capacity": 64.2, "svi": 0.12, "top_decile_gap": 0, "stratum": "metropolitan", "scored": 1}, "geometry": {"type": "Polygon", "coordinates": [[[-77.0599, 38.9304], [-77.0568, 38.9326], [-77.0527, 38.9255], [-77.0576, 38.9262], [-77.0577, 38.9232], [-77.0664, 38.9275], [-77.0664, 38.9315], [-77.0599, 38.9304]]]}}, {"type": "Feature", "properties": {"fips": "11001001401", "gap_national": -79.2, "gap_stratum": -78.5, "burden": 4.7, "capacity": 72.6, "svi": 0.26, "top_decile_gap": 0, "stratum": "metropolitan", "scored": 1}, "geometry": {"type": "Polygon", "coordinates": [[[-77.0716, 38.9718], [-77.0684, 38.9658], [-77.062, 38.9658], [-77.0662, 38.961], [-77.0733, 38.961], [-77.0774, 38.9673], [-77.0716, 38.9718]]]}}, {"type": "Feature", "properties": {"fips": "11001001901", "gap_national": -44.6, "gap_stratum": -39.2, "burden": 32.1, "capacity": 67.3, "svi": 0.76, "top_decile_gap": 0, "stratum": "metropolitan", "scored": 1}, "geometry": {"type": "Polygon", "coordinates": [[[-77.0273, 38.9699], [-77.0199, 38.9699], [-77.0199, 38.9587], [-77.028, 38.9612], [-77.0273, 38.9699]]]}}, {"type": "Feature", "properties": {"fips": "11001002202", "gap_national": -24.4, "gap_stratum": -23.5, "burden": 21.2, "capacity": 45.2, "svi": 0.85, "top_decile_gap": 0, "stratum": "metropolitan", "scored": 1}, "geometry": {"type": "Polygon", "coordinates": [[[-77.009, 38.9524], [-77.0089, 38.946], [-77.0115, 38.9443], [-77.0194, 38.9463], [-77.0197, 38.9521], [-77.009, 38.9524]]]}}, {"type": "Feature", "properties": {"fips": "11001002702", "gap_national": -40.3, "gap_stratum": -42.6, "burden": 3.5, "capacity": 45.4, "svi": 0.51, "top_decile_gap": 0, "stratum": "metropolitan", "scored": 1}, "geometry": {"type": "Polygon", "coordinates": [[[-77.0365, 38.9317], [-77.0367, 38.9271], [-77.0445, 38.9281], [-77.0505, 38.9332], [-77.0365, 38.9317]]]}}, {"type": "Feature", "properties": {"fips": "11001003302", "gap_national": -43.9, "gap_stratum": -46.3, "burden": 2.2, "capacity": 47.5, "svi": 0.24, "top_decile_gap": 0, "stratum": "metropolitan", "scored": 1}, "geometry": {"type": "Polygon", "coordinates": [[[-77.009, 38.9169], [-77.009, 38.9108], [-77.0141, 38.9129], [-77.0143, 38.9151], [-77.009, 38.9169]]]}}, {"type": "Feature", "properties": {"fips": "11001004801", "gap_national": -38.4, "gap_stratum": -40.6, "burden": 5.2, "capacity": 44.7, "svi": 0.47, "top_decile_gap": 0, "stratum": "metropolitan", "scored": 1}, "geometry": {"type": "Polygon", "coordinates": [[[-77.0219, 38.9163], [-77.0181, 38.9146], [-77.0159, 38.9086], [-77.0219, 38.9086], [-77.0219, 38.9163]]]}}, {"type": "Feature", "properties": {"fips": "11001010800", "gap_national": -9.2, "gap_stratum": -9.9, "burden": 2.6, "capacity": 16.7, "svi": 0.61, "top_decile_gap": 0, "stratum": "metropolitan", "scored": 1}, "geometry": {"type": "Polygon", "coordinates": [[[-77.0496, 38.9022], [-77.0395, 38.8988], [-77.0395, 38.8921], [-77.0501, 38.896], [-77.0496, 38.9022]]]}}, {"type": "Feature", "properties": {"fips": "11001006801", "gap_national": -50.5, "gap_stratum": -51.9, "burden": 7.8, "capacity": 54.3, "svi": 0.21, "top_decile_gap": 0, "stratum": "metropolitan", "scored": 1}, "geometry": {"type": "Polygon", "coordinates": [[[-76.9773, 38.8898], [-76.9773, 38.8846], [-76.9837, 38.8871], [-76.9836, 38.8898], [-76.9773, 38.8898]]]}}, {"type": "Feature", "properties": {"fips": "11001007406", "gap_national": 26.6, "gap_stratum": 32.4, "burden": 57.8, "capacity": 38.4, "svi": 0.79, "top_decile_gap": 0, "stratum": "metropolitan", "scored": 1}, "geometry": {"type": "Polygon", "coordinates": [[[-76.9877, 38.858], [-76.9833, 38.8534], [-76.992, 38.8538], [-76.9936, 38.8585], [-76.9877, 38.858]]]}}, {"type": "Feature", "properties": {"fips": "11001007503", "gap_national": 4.7, "gap_stratum": 10.5, "burden": 54.4, "capacity": 51.6, "svi": 0.92, "top_decile_gap": 0, "stratum": "metropolitan", "scored": 1}, "geometry": {"type": "Polygon", "coordinates": [[[-76.9895, 38.8684], [-76.9822, 38.8653], [-76.9837, 38.8605], [-76.988, 38.8602], [-76.9926, 38.865], [-76.9895, 38.8684]]]}}, {"type": "Feature", "properties": {"fips": "11001007709", "gap_national": -1.8, "gap_stratum": 4.0, "burden": 73.7, "capacity": 71.4, "svi": 0.97, "top_decile_gap": 0, "stratum": "metropolitan", "scored": 1}, "geometry": {"type": "Polygon", "coordinates": [[[-76.9677, 38.8815], [-76.9589, 38.8817], [-76.9649, 38.8764], [-76.9648, 38.8711], [-76.978, 38.8769], [-76.9677, 38.8815]]]}}, {"type": "Feature", "properties": {"fips": "11001007903", "gap_national": -30.3, "gap_stratum": -25.8, "burden": 33.8, "capacity": 59.0, "svi": 0.26, "top_decile_gap": 0, "stratum": "metropolitan", "scored": 1}, "geometry": {"type": "Polygon", "coordinates": [[[-76.9762, 38.8989], [-76.9695, 38.8978], [-76.9752, 38.8933], [-76.9773, 38.8933], [-76.9762, 38.8989]]]}}, {"type": "Feature", "properties": {"fips": "11001009700", "gap_national": 3.7, "gap_stratum": 9.4, "burden": 71.0, "capacity": 65.3, "svi": 0.91, "top_decile_gap": 0, "stratum": "metropolitan", "scored": 1}, "geometry": {"type": "Polygon", "coordinates": [[[-76.9895, 38.8335], [-76.9935, 38.8375], [-76.9887, 38.8386], [-76.985, 38.8338], [-76.9913, 38.8292], [-76.9949, 38.8292], [-76.9895, 38.8335]]]}}, {"type": "Feature", "properties": {"fips": "11001009807", "gap_national": -4.9, "gap_stratum": 2.1, "burden": 63.8, "capacity": 65.3, "svi": 0.82, "top_decile_gap": 0, "stratum": "metropolitan", "scored": 1}, "geometry": {"type": "Polygon", "coordinates": [[[-77.0168, 38.8298], [-77.0092, 38.8396], [-77.006, 38.8241], [-77.0119, 38.8236], [-77.0121, 38.8219], [-77.0174, 38.8236], [-77.0168, 38.8298]]]}}, {"type": "Feature", "properties": {"fips": "11001009907", "gap_national": 24.5, "gap_stratum": 27.6, "burden": 75.8, "capacity": 55.0, "svi": 0.81, "top_decile_gap": 0, "stratum": "metropolitan", "scored": 1}, "geometry": {"type": "Polygon", "coordinates": [[[-76.9406, 38.8865], [-76.9362, 38.8865], [-76.933, 38.8815], [-76.9449, 38.8791], [-76.9458, 38.8809], [-76.9406, 38.8865]]]}}, {"type": "Feature", "properties": {"fips": "11001002802", "gap_national": 0.4, "gap_stratum": 2.2, "burden": 20.1, "capacity": 22.4, "svi": 0.96, "top_decile_gap": 0, "stratum": "metropolitan", "scored": 1}, "geometry": {"type": "Polygon", "coordinates": [[[-77.0365, 38.9333], [-77.0327, 38.9319], [-77.0324, 38.9266], [-77.0367, 38.9271], [-77.0365, 38.9333]]]}}, {"type": "Feature", "properties": {"fips": "11001000904", "gap_national": -87.7, "gap_stratum": -85.6, "burden": 14.6, "capacity": 91.3, "svi": 0.08, "top_decile_gap": 0, "stratum": "metropolitan", "scored": 1}, "geometry": {"type": "Polygon", "coordinates": [[[-77.1005, 38.9491], [-77.0968, 38.9458], [-77.0961, 38.9359], [-77.101, 38.9352], [-77.0971, 38.9325], [-77.104, 38.9274], [-77.1116, 38.9357], [-77.1125, 38.9401], [-77.1005, 38.9491]]]}}, {"type": "Feature", "properties": {"fips": "11001005802", "gap_national": -56.9, "gap_stratum": -58.6, "burden": 2.9, "capacity": 56.6, "svi": 0.2, "top_decile_gap": 0, "stratum": "metropolitan", "scored": 1}, "geometry": {"type": "Polygon", "coordinates": [[[-77.0336, 38.8988], [-77.0219, 38.9029], [-77.0219, 38.8933], [-77.0336, 38.8955], [-77.0336, 38.8988]]]}}, {"type": "Feature", "properties": {"fips": "11001011001", "gap_national": -55.9, "gap_stratum": -54.0, "burden": 18.3, "capacity": 64.2, "svi": 0.14, "top_decile_gap": 0, "stratum": "metropolitan", "scored": 1}, "geometry": {"type": "Polygon", "coordinates": [[[-77.0139, 38.8765], [-77.0143, 38.872], [-77.017, 38.872], [-77.0176, 38.8765], [-77.0139, 38.8765]]]}}, {"type": "Feature", "properties": {"fips": "11001002504", "gap_national": -26.5, "gap_stratum": -28.0, "burden": 7.7, "capacity": 36.6, "svi": 0.67, "top_decile_gap": 0, "stratum": "metropolitan", "scored": 1}, "geometry": {"type": "Polygon", "coordinates": [[[-77.0364, 38.9419], [-77.0297, 38.9419], [-77.0297, 38.9363], [-77.0364, 38.9379], [-77.0364, 38.9419]]]}}, {"type": "Feature", "properties": {"fips": "11001000803", "gap_national": -71.5, "gap_stratum": -71.3, "burden": 6.0, "capacity": 67.6, "svi": 0.52, "top_decile_gap": 0, "stratum": "metropolitan", "scored": 1}, "geometry": {"type": "Polygon", "coordinates": [[[-77.0856, 38.9377], [-77.0801, 38.9337], [-77.0806, 38.9302], [-77.084, 38.9303], [-77.0877, 38.9358], [-77.0856, 38.9377]]]}}, {"type": "Feature", "properties": {"fips": "11001005801", "gap_national": -49.5, "gap_stratum": -51.3, "burden": 6.1, "capacity": 52.9, "svi": 0.55, "top_decile_gap": 0, "stratum": "metropolitan", "scored": 1}, "geometry": {"type": "Polygon", "coordinates": [[[-77.0219, 38.8973], [-77.0219, 38.9021], [-77.0189, 38.9011], [-77.0199, 38.8928], [-77.0219, 38.8973]]]}}, {"type": "Feature", "properties": {"fips": "11001000400", "gap_national": -70.3, "gap_stratum": -68.6, "burden": 13.0, "capacity": 70.6, "svi": 0.22, "top_decile_gap": 0, "stratum": "metropolitan", "scored": 1}, "geometry": {"type": "Polygon", "coordinates": [[[-77.0726, 38.9319], [-77.0664, 38.9315], [-77.0664, 38.9275], [-77.054, 38.9212], [-77.0688, 38.917], [-77.0729, 38.9225], [-77.0726, 38.9319]]]}}, {"type": "Feature", "properties": {"fips": "11001002501", "gap_national": -62.9, "gap_stratum": -62.0, "burden": 12.4, "capacity": 64.9, "svi": 0.43, "top_decile_gap": 0, "stratum": "metropolitan", "scored": 1}, "geometry": {"type": "Polygon", "coordinates": [[[-77.0266, 38.9461], [-77.0255, 38.9419], [-77.0364, 38.9419], [-77.0364, 38.9483], [-77.0266, 38.9461]]]}}, {"type": "Feature", "properties": {"fips": "11001006802", "gap_national": -58.7, "gap_stratum": -60.0, "burden": 4.7, "capacity": 58.4, "svi": 0.13, "top_decile_gap": 0, "stratum": "metropolitan", "scored": 1}, "geometry": {"type": "Polygon", "coordinates": [[[-76.9837, 38.8871], [-76.9773, 38.8846], [-76.9816, 38.8788], [-76.9837, 38.8797], [-76.9837, 38.8871]]]}}, {"type": "Feature", "properties": {"fips": "11001007807", "gap_national": 12.7, "gap_stratum": 17.8, "burden": 68.0, "capacity": 57.0, "svi": 0.81, "top_decile_gap": 0, "stratum": "metropolitan", "scored": 1}, "geometry": {"type": "Polygon", "coordinates": [[[-76.9235, 38.9041], [-76.9134, 38.896], [-76.9251, 38.8959], [-76.9235, 38.9041]]]}}, {"type": "Feature", "properties": {"fips": "11001007000", "gap_national": -47.6, "gap_stratum": -49.9, "burden": 2.5, "capacity": 50.2, "svi": 0.09, "top_decile_gap": 0, "stratum": "metropolitan", "scored": 1}, "geometry": {"type": "Polygon", "coordinates": [[[-76.9938, 38.8846], [-76.9915, 38.8829], [-76.9915, 38.8778], [-77.0021, 38.8805], [-77.002, 38.8823], [-76.9938, 38.8846]]]}}, {"type": "Feature", "properties": {"fips": "11001006500", "gap_national": -55.0, "gap_stratum": -56.8, "burden": 3.8, "capacity": 55.6, "svi": 0.37, "top_decile_gap": 0, "stratum": "metropolitan", "scored": 1}, "geometry": {"type": "Polygon", "coordinates": [[[-77.0035, 38.8876], [-76.9962, 38.8848], [-77.0021, 38.8805], [-77.0091, 38.8815], [-77.0091, 38.8839], [-77.0035, 38.8876]]]}}, {"type": "Feature", "properties": {"fips": "11001006900", "gap_national": -63.3, "gap_stratum": -64.6, "burden": 2.2, "capacity": 60.6, "svi": 0.07, "top_decile_gap": 0, "stratum": "metropolitan", "scored": 1}, "geometry": {"type": "Polygon", "coordinates": [[[-76.9837, 38.8871], [-76.9837, 38.8797], [-76.9938, 38.8838], [-76.9837, 38.8871]]]}}, {"type": "Feature", "properties": {"fips": "11001008001", "gap_national": -59.7, "gap_stratum": -61.3, "burden": 2.1, "capacity": 58.2, "svi": 0.06, "top_decile_gap": 0, "stratum": "metropolitan", "scored": 1}, "geometry": {"type": "Polygon", "coordinates": [[[-76.9836, 38.9], [-76.9836, 38.8935], [-76.9902, 38.8936], [-76.9902, 38.8973], [-76.9836, 38.9]]]}}, {"type": "Feature", "properties": {"fips": "11001001303", "gap_national": -63.4, "gap_stratum": -64.1, "burden": 5.1, "capacity": 61.6, "svi": 0.21, "top_decile_gap": 0, "stratum": "metropolitan", "scored": 1}, "geometry": {"type": "Polygon", "coordinates": [[[-77.0517, 38.9489], [-77.0497, 38.9438], [-77.0515, 38.9397], [-77.0617, 38.941], [-77.0657, 38.9479], [-77.0517, 38.9489]]]}}, {"type": "Feature", "properties": {"fips": "11001010601", "gap_national": -28.0, "gap_stratum": -30.2, "burden": 1.1, "capacity": 34.8, "svi": 0.18, "top_decile_gap": 0, "stratum": "metropolitan", "scored": 1}, "geometry": {"type": "Polygon", "coordinates": [[[-77.009, 38.9108], [-77.0025, 38.908], [-77.0034, 38.9056], [-77.0091, 38.9056], [-77.009, 38.9108]]]}}, {"type": "Feature", "properties": {"fips": "11001004703", "gap_national": -6.0, "gap_stratum": -5.4, "burden": 14.5, "capacity": 22.9, "svi": 0.45, "top_decile_gap": 0, "stratum": "metropolitan", "scored": 1}, "geometry": {"type": "Polygon", "coordinates": [[[-77.0148, 38.9054], [-77.0137, 38.9025], [-77.0219, 38.9025], [-77.0148, 38.9054]]]}}, {"type": "Feature", "properties": {"fips": "11001003901", "gap_national": -46.7, "gap_stratum": -49.2, "burden": 0.8, "capacity": 49.0, "svi": 0.12, "top_decile_gap": 0, "stratum": "metropolitan", "scored": 1}, "geometry": {"type": "Polygon", "coordinates": [[[-77.0412, 38.9272], [-77.0367, 38.9271], [-77.0427, 38.9227], [-77.0412, 38.9272]]]}}, {"type": "Feature", "properties": {"fips": "11001002201", "gap_national": -47.6, "gap_stratum": -47.0, "burden": 16.7, "capacity": 57.6, "svi": 0.49, "top_decile_gap": 0, "stratum": "metropolitan", "scored": 1}, "geometry": {"type": "Polygon", "coordinates": [[[-77.0197, 38.9521], [-77.0194, 38.9463], [-77.0266, 38.9461], [-77.0274, 38.9519], [-77.0197, 38.9521]]]}}, {"type": "Feature", "properties": {"fips": "11001007901", "gap_national": -3.9, "gap_stratum": 0.1, "burden": 36.8, "capacity": 43.3, "svi": 0.79, "top_decile_gap": 0, "stratum": "metropolitan", "scored": 1}, "geometry": {"type": "Polygon", "coordinates": [[[-76.9836, 38.9], [-76.9762, 38.8989], [-76.9773, 38.8933], [-76.9836, 38.8948], [-76.9836, 38.9]]]}}, {"type": "Feature", "properties": {"fips": "11001009203", "gap_national": -37.7, "gap_stratum": -38.0, "burden": 15.5, "capacity": 50.1, "svi": 0.64, "top_decile_gap": 0, "stratum": "metropolitan", "scored": 1}, "geometry": {"type": "Polygon", "coordinates": [[[-77.0089, 38.9267], [-77.0006, 38.9234], [-77.0006, 38.9198], [-77.009, 38.9181], [-77.0089, 38.9267]]]}}, {"type": "Feature", "properties": {"fips": "11001005601", "gap_national": -25.9, "gap_stratum": -27.8, "burden": 1.1, "capacity": 32.9, "svi": 0.36, "top_decile_gap": 0, "stratum": "metropolitan", "scored": 1}, "geometry": {"type": "Polygon", "coordinates": [[[-77.056, 38.9045], [-77.0514, 38.903], [-77.0501, 38.8996], [-77.0576, 38.9028], [-77.056, 38.9045]]]}}, {"type": "Feature", "properties": {"fips": "11001004704", "gap_national": 81.0, "gap_stratum": 79.8, "burden": 96.4, "capacity": 24.4, "svi": 0.91, "top_decile_gap": 1, "stratum": "metropolitan", "scored": 1}, "geometry": {"type": "Polygon", "coordinates": [[[-77.009, 38.9073], [-77.0091, 38.9025], [-77.0137, 38.9025], [-77.0148, 38.9054], [-77.009, 38.9073]]]}}, {"type": "Feature", "properties": {"fips": "11001003902", "gap_national": -50.5, "gap_stratum": -52.8, "burden": 2.3, "capacity": 52.1, "svi": 0.11, "top_decile_gap": 0, "stratum": "metropolitan", "scored": 1}, "geometry": {"type": "Polygon", "coordinates": [[[-77.0462, 38.926], [-77.0434, 38.928], [-77.0411, 38.9252], [-77.0486, 38.9233], [-77.0495, 38.9281], [-77.0462, 38.926]]]}}, {"type": "Feature", "properties": {"fips": "11001001003", "gap_national": -82.1, "gap_stratum": -80.7, "burden": 8.5, "capacity": 77.3, "svi": 0.05, "top_decile_gap": 0, "stratum": "metropolitan", "scored": 1}, "geometry": {"type": "Polygon", "coordinates": [[[-77.0914, 38.9566], [-77.0887, 38.9547], [-77.0886, 38.9432], [-77.0931, 38.9432], [-77.1005, 38.9491], [-77.0914, 38.9566]]]}}, {"type": "Feature", "properties": {"fips": "11001009504", "gap_national": -45.1, "gap_stratum": -37.4, "burden": 40.5, "capacity": 75.2, "svi": 0.54, "top_decile_gap": 0, "stratum": "metropolitan", "scored": 1}, "geometry": {"type": "Polygon", "coordinates": [[[-76.9889, 38.9463], [-76.9888, 38.9346], [-76.9948, 38.9337], [-77.0, 38.9463], [-76.9889, 38.9463]]]}}, {"type": "Feature", "properties": {"fips": "11001001804", "gap_national": 4.6, "gap_stratum": 10.4, "burden": 54.2, "capacity": 51.5, "svi": 0.97, "top_decile_gap": 0, "stratum": "metropolitan", "scored": 1}, "geometry": {"type": "Polygon", "coordinates": [[[-77.0334, 38.9723], [-77.027, 38.9724], [-77.028, 38.9612], [-77.0334, 38.962], [-77.0334, 38.9723]]]}}, {"type": "Feature", "properties": {"fips": "11001010100", "gap_national": -47.9, "gap_stratum": -50.3, "burden": 1.6, "capacity": 50.2, "svi": 0.4, "top_decile_gap": 0, "stratum": "metropolitan", "scored": 1}, "geometry": {"type": "Polygon", "coordinates": [[[-77.0362, 38.9071], [-77.0239, 38.9029], [-77.0336, 38.8988], [-77.0365, 38.9013], [-77.0362, 38.9071]]]}}, {"type": "Feature", "properties": {"fips": "11001009604", "gap_national": -25.4, "gap_stratum": -16.9, "burden": 59.3, "capacity": 77.1, "svi": 0.78, "top_decile_gap": 0, "stratum": "metropolitan", "scored": 1}, "geometry": {"type": "Polygon", "coordinates": [[[-76.962, 38.8971], [-76.951, 38.8955], [-76.9567, 38.8898], [-76.9634, 38.8899], [-76.962, 38.8971]]]}}, {"type": "Feature", "properties": {"fips": "11001010602", "gap_national": -35.8, "gap_stratum": -38.2, "burden": 1.8, "capacity": 41.3, "svi": 0.4, "top_decile_gap": 0, "stratum": "metropolitan", "scored": 1}, "geometry": {"type": "Polygon", "coordinates": [[[-77.0025, 38.908], [-76.9931, 38.904], [-76.995, 38.9002], [-77.0036, 38.9002], [-77.0025, 38.908]]]}}, {"type": "Feature", "properties": {"fips": "11001006400", "gap_national": 16.9, "gap_stratum": 22.6, "burden": 52.8, "capacity": 41.4, "svi": 0.74, "top_decile_gap": 0, "stratum": "metropolitan", "scored": 1}, "geometry": {"type": "Polygon", "coordinates": [[[-77.0139, 38.8765], [-77.0091, 38.8765], [-77.0089, 38.8708], [-77.0055, 38.8687], [-77.0091, 38.8636], [-77.0154, 38.86], [-77.0139, 38.8765]]]}}, {"type": "Feature", "properties": {"fips": "11001004201", "gap_national": -39.4, "gap_stratum": -41.9, "burden": 0.9, "capacity": 43.8, "svi": 0.05, "top_decile_gap": 0, "stratum": "metropolitan", "scored": 1}, "geometry": {"type": "Polygon", "coordinates": [[[-77.0402, 38.918], [-77.0365, 38.9191], [-77.0365, 38.9141], [-77.0417, 38.9141], [-77.0402, 38.918]]]}}, {"type": "Feature", "properties": {"fips": "11001008402", "gap_national": -62.9, "gap_stratum": -64.0, "burden": 3.3, "capacity": 60.6, "svi": 0.23, "top_decile_gap": 0, "stratum": "metropolitan", "scored": 1}, "geometry": {"type": "Polygon", "coordinates": [[[-76.995, 38.9002], [-76.9833, 38.9002], [-76.995, 38.8954], [-76.995, 38.9002]]]}}, {"type": "Feature", "properties": {"fips": "11001009802", "gap_national": 42.8, "gap_stratum": 47.0, "burden": 70.1, "capacity": 37.0, "svi": 0.86, "top_decile_gap": 0, "stratum": "metropolitan", "scored": 1}, "geometry": {"type": "Polygon", "coordinates": [[[-76.9991, 38.832], [-76.9909, 38.8323], [-76.9949, 38.8292], [-77.0006, 38.8292], [-76.9991, 38.832]]]}}, {"type": "Feature", "properties": {"fips": "11001008804", "gap_national": -18.9, "gap_stratum": -15.1, "burden": 34.7, "capacity": 52.2, "svi": 0.83, "top_decile_gap": 0, "stratum": "metropolitan", "scored": 1}, "geometry": {"type": "Polygon", "coordinates": [[[-76.9782, 38.9173], [-76.9751, 38.9141], [-76.9809, 38.904], [-76.9888, 38.9078], [-76.9782, 38.9173]]]}}, {"type": "Feature", "properties": {"fips": "11001009803", "gap_national": 32.1, "gap_stratum": 33.9, "burden": 79.8, "capacity": 52.7, "svi": 0.96, "top_decile_gap": 0, "stratum": "metropolitan", "scored": 1}, "geometry": {"type": "Polygon", "coordinates": [[[-77.0042, 38.8404], [-77.0006, 38.8419], [-77.0006, 38.834], [-77.0039, 38.831], [-77.0077, 38.8314], [-77.0077, 38.8357], [-77.0042, 38.8404]]]}}, {"type": "Feature", "properties": {"fips": "11001002102", "gap_national": -51.1, "gap_stratum": -48.8, "burden": 20.7, "capacity": 62.9, "svi": 0.68, "top_decile_gap": 0, "stratum": "metropolitan", "scored": 1}, "geometry": {"type": "Polygon", "coordinates": [[[-77.0093, 38.9602], [-77.009, 38.9524], [-77.0197, 38.9521], [-77.0199, 38.9587], [-77.0093, 38.9602]]]}}, {"type": "Feature", "properties": {"fips": "11001004901", "gap_national": -28.2, "gap_stratum": -29.8, "burden": 7.3, "capacity": 37.7, "svi": 0.48, "top_decile_gap": 0, "stratum": "metropolitan", "scored": 1}, "geometry": {"type": "Polygon", "coordinates": [[[-77.027, 38.9141], [-77.0219, 38.9141], [-77.0219, 38.9086], [-77.027, 38.9086], [-77.027, 38.9141]]]}}, {"type": "Feature", "properties": {"fips": "11001008302", "gap_national": -53.9, "gap_stratum": -56.0, "burden": 1.4, "capacity": 54.2, "svi": 0.1, "top_decile_gap": 0, "stratum": "metropolitan", "scored": 1}, "geometry": {"type": "Polygon", "coordinates": [[[-76.9984, 38.9002], [-76.995, 38.9002], [-76.995, 38.8917], [-76.9985, 38.894], [-76.9984, 38.9002]]]}}, {"type": "Feature", "properties": {"fips": "11001005502", "gap_national": -50.0, "gap_stratum": -52.3, "burden": 2.2, "capacity": 51.8, "svi": 0.31, "top_decile_gap": 0, "stratum": "metropolitan", "scored": 1}, "geometry": {"type": "Polygon", "coordinates": [[[-77.0461, 38.9144], [-77.0426, 38.9096], [-77.0457, 38.9072], [-77.0488, 38.9072], [-77.0461, 38.9144]]]}}, {"type": "Feature", "properties": {"fips": "11001009901", "gap_national": -56.3, "gap_stratum": -48.7, "burden": 43.6, "capacity": 95.0, "svi": 0.44, "top_decile_gap": 0, "stratum": "metropolitan", "scored": 1}, "geometry": {"type": "Polygon", "coordinates": [[[-76.9575, 38.8836], [-76.9467, 38.8828], [-76.9458, 38.8809], [-76.949, 38.8784], [-76.9498, 38.8679], [-76.953, 38.8663], [-76.9648, 38.8711], [-76.9649, 38.8764], [-76.9575, 38.8836]]]}}, {"type": "Feature", "properties": {"fips": "11001007504", "gap_national": 26.9, "gap_stratum": 30.5, "burden": 72.2, "capacity": 50.7, "svi": 0.94, "top_decile_gap": 0, "stratum": "metropolitan", "scored": 1}, "geometry": {"type": "Polygon", "coordinates": [[[-76.983, 38.8613], [-76.9832, 38.8664], [-76.9733, 38.8633], [-76.9757, 38.8608], [-76.9736, 38.8594], [-76.9754, 38.8563], [-76.9831, 38.8569], [-76.988, 38.8602], [-76.983, 38.8613]]]}}, {"type": "Feature", "properties": {"fips": "11001004002", "gap_national": -48.6, "gap_stratum": -51.1, "burden": 0.9, "capacity": 50.5, "svi": 0.09, "top_decile_gap": 0, "stratum": "metropolitan", "scored": 1}, "geometry": {"type": "Polygon", "coordinates": [[[-77.0461, 38.917], [-77.0427, 38.9227], [-77.0417, 38.9168], [-77.0461, 38.9144], [-77.0461, 38.917]]]}}, {"type": "Feature", "properties": {"fips": "11001005900", "gap_national": -32.0, "gap_stratum": -34.3, "burden": 1.1, "capacity": 38.0, "svi": 0.24, "top_decile_gap": 0, "stratum": "metropolitan", "scored": 1}, "geometry": {"type": "Polygon", "coordinates": [[[-77.0189, 38.9011], [-77.0091, 38.8975], [-77.0132, 38.8921], [-77.0199, 38.8928], [-77.0189, 38.9011]]]}}, {"type": "Feature", "properties": {"fips": "11001006700", "gap_national": -65.8, "gap_stratum": -66.8, "burden": 2.0, "capacity": 62.1, "svi": 0.04, "top_decile_gap": 0, "stratum": "metropolitan", "scored": 1}, "geometry": {"type": "Polygon", "coordinates": [[[-76.9836, 38.8898], [-76.9837, 38.8871], [-76.995, 38.8846], [-76.995, 38.8898], [-76.9836, 38.8898]]]}}, {"type": "Feature", "properties": {"fips": "11001007403", "gap_national": 71.7, "gap_stratum": 72.2, "burden": 86.9, "capacity": 26.6, "svi": 0.87, "top_decile_gap": 1, "stratum": "metropolitan", "scored": 1}, "geometry": {"type": "Polygon", "coordinates": [[[-76.9742, 38.851], [-76.9654, 38.8491], [-76.9807, 38.8454], [-76.9742, 38.851]]]}}, {"type": "Feature", "properties": {"fips": "11001007301", "gap_national": -25.0, "gap_stratum": -26.8, "burden": 2.8, "capacity": 32.8, "svi": 0.2, "top_decile_gap": 0, "stratum": "metropolitan", "scored": 1}, "geometry": {"type": "Polygon", "coordinates": [[[-77.0442, 38.8402], [-77.0345, 38.8405], [-77.0318, 38.8509], [-77.0091, 38.8636], [-77.0055, 38.8687], [-77.0023, 38.8674], [-77.0092, 38.8396], [-77.0168, 38.8298], [-77.0175, 38.8217], [-77.0388, 38.8196], [-77.0392, 38.8322], [-77.0449, 38.8347], [-77.0442, 38.8402]]]}}, {"type": "Feature", "properties": {"fips": "11001007502", "gap_national": 7.2, "gap_stratum": 11.8, "burden": 76.3, "capacity": 66.8, "svi": 0.93, "top_decile_gap": 0, "stratum": "metropolitan", "scored": 1}, "geometry": {"type": "Polygon", "coordinates": [[[-76.9733, 38.8633], [-76.9702, 38.8619], [-76.9619, 38.8519], [-76.9657, 38.8524], [-76.9663, 38.8505], [-76.97, 38.8527], [-76.97, 38.8558], [-76.9752, 38.8565], [-76.9736, 38.8594], [-76.9757, 38.8608], [-76.9733, 38.8633]]]}}, {"type": "Feature", "properties": {"fips": "11001007707", "gap_national": 4.1, "gap_stratum": 9.8, "burden": 70.1, "capacity": 64.3, "svi": 0.88, "top_decile_gap": 0, "stratum": "metropolitan", "scored": 1}, "geometry": {"type": "Polygon", "coordinates": [[[-76.933, 38.8815], [-76.924, 38.8814], [-76.935, 38.8728], [-76.9449, 38.8791], [-76.933, 38.8815]]]}}, {"type": "Feature", "properties": {"fips": "11001007803", "gap_national": 16.4, "gap_stratum": 21.2, "burden": 67.9, "capacity": 54.5, "svi": 0.96, "top_decile_gap": 0, "stratum": "metropolitan", "scored": 1}, "geometry": {"type": "Polygon", "coordinates": [[[-76.9429, 38.902], [-76.9366, 38.8983], [-76.9349, 38.8898], [-76.951, 38.8955], [-76.9429, 38.902]]]}}, {"type": "Feature", "properties": {"fips": "11001008002", "gap_national": -58.9, "gap_stratum": -60.3, "burden": 3.8, "capacity": 58.1, "svi": 0.27, "top_decile_gap": 0, "stratum": "metropolitan", "scored": 1}, "geometry": {"type": "Polygon", "coordinates": [[[-76.9902, 38.8936], [-76.9752, 38.8933], [-76.974, 38.8903], [-76.9915, 38.8898], [-76.9902, 38.8936]]]}}, {"type": "Feature", "properties": {"fips": "11001008410", "gap_national": -48.0, "gap_stratum": -50.2, "burden": 3.0, "capacity": 50.6, "svi": 0.15, "top_decile_gap": 0, "stratum": "metropolitan", "scored": 1}, "geometry": {"type": "Polygon", "coordinates": [[[-76.9931, 38.904], [-76.9841, 38.9002], [-76.995, 38.9002], [-76.9931, 38.904]]]}}, {"type": "Feature", "properties": {"fips": "11001008802", "gap_national": -13.8, "gap_stratum": -11.4, "burden": 28.5, "capacity": 43.4, "svi": 0.62, "top_decile_gap": 0, "stratum": "metropolitan", "scored": 1}, "geometry": {"type": "Polygon", "coordinates": [[[-76.9888, 38.9078], [-76.9809, 38.904], [-76.9844, 38.9003], [-76.9931, 38.904], [-76.9888, 38.9078]]]}}, {"type": "Feature", "properties": {"fips": "11001008904", "gap_national": -17.0, "gap_stratum": -9.5, "burden": 52.3, "capacity": 64.4, "svi": 0.78, "top_decile_gap": 0, "stratum": "metropolitan", "scored": 1}, "geometry": {"type": "Polygon", "coordinates": [[[-76.9725, 38.9046], [-76.9702, 38.9034], [-76.9704, 38.8979], [-76.9834, 38.9002], [-76.9725, 38.9046]]]}}, {"type": "Feature", "properties": {"fips": "11001009801", "gap_national": 42.3, "gap_stratum": 42.8, "burden": 83.6, "capacity": 48.2, "svi": 0.96, "top_decile_gap": 0, "stratum": "metropolitan", "scored": 1}, "geometry": {"type": "Polygon", "coordinates": [[[-76.9935, 38.8375], [-76.9895, 38.8335], [-76.9909, 38.8323], [-77.0039, 38.831], [-76.9935, 38.8375]]]}}, {"type": "Feature", "properties": {"fips": "11001009301", "gap_national": -62.8, "gap_stratum": -60.4, "burden": 17.6, "capacity": 68.5, "svi": 0.13, "top_decile_gap": 0, "stratum": "metropolitan", "scored": 1}, "geometry": {"type": "Polygon", "coordinates": [[[-76.9798, 38.9351], [-76.9791, 38.9277], [-76.9856, 38.9246], [-76.986, 38.9278], [-76.9942, 38.9274], [-76.9946, 38.9339], [-76.9798, 38.9351]]]}}, {"type": "Feature", "properties": {"fips": "11001009302", "gap_national": -40.3, "gap_stratum": -42.0, "burden": 8.2, "capacity": 47.4, "svi": 0.55, "top_decile_gap": 0, "stratum": "metropolitan", "scored": 1}, "geometry": {"type": "Polygon", "coordinates": [[[-76.9942, 38.9274], [-76.986, 38.9278], [-76.9856, 38.9246], [-76.996, 38.9214], [-76.9942, 38.9274]]]}}, {"type": "Feature", "properties": {"fips": "11001009505", "gap_national": -55.1, "gap_stratum": -48.9, "burden": 32.3, "capacity": 75.7, "svi": 0.49, "top_decile_gap": 0, "stratum": "metropolitan", "scored": 1}, "geometry": {"type": "Polygon", "coordinates": [[[-77.0086, 38.9703], [-76.9975, 38.9615], [-77.0023, 38.9568], [-77.009, 38.9548], [-77.0086, 38.9703]]]}}, {"type": "Feature", "properties": {"fips": "11001009811", "gap_national": 43.5, "gap_stratum": 46.9, "burden": 73.0, "capacity": 39.1, "svi": 0.91, "top_decile_gap": 0, "stratum": "metropolitan", "scored": 1}, "geometry": {"type": "Polygon", "coordinates": [[[-77.0006, 38.8292], [-76.9913, 38.8292], [-77.0015, 38.8214], [-77.002, 38.831], [-77.0006, 38.8292]]]}}, {"type": "Feature", "properties": {"fips": "11001009903", "gap_national": -41.2, "gap_stratum": -34.6, "burden": 37.5, "capacity": 69.4, "svi": 0.71, "top_decile_gap": 0, "stratum": "metropolitan", "scored": 1}, "geometry": {"type": "Polygon", "coordinates": [[[-76.9207, 38.8898], [-76.9133, 38.8898], [-76.9186, 38.8857], [-76.9301, 38.8898], [-76.9207, 38.8898]]]}}, {"type": "Feature", "properties": {"fips": "11001009400", "gap_national": -57.9, "gap_stratum": -51.4, "burden": 33.6, "capacity": 79.7, "svi": 0.58, "top_decile_gap": 0, "stratum": "metropolitan", "scored": 1}, "geometry": {"type": "Polygon", "coordinates": [[[-76.9778, 38.9463], [-76.9634, 38.9352], [-76.9791, 38.9277], [-76.9804, 38.943], [-76.9778, 38.9463]]]}}, {"type": "Feature", "properties": {"fips": "11001000201", "gap_national": 4.5, "gap_stratum": 5.8, "burden": 12.7, "capacity": 8.6, "svi": null, "top_decile_gap": 0, "stratum": "metropolitan", "scored": 1}, "geometry": {"type": "Polygon", "coordinates": [[[-77.0692, 38.9116], [-77.0691, 38.9087], [-77.0716, 38.9086], [-77.0715, 38.9051], [-77.0783, 38.906], [-77.079, 38.9127], [-77.0692, 38.9116]]]}}, {"type": "Feature", "properties": {"fips": "11001001200", "gap_national": -68.9, "gap_stratum": -69.3, "burden": 3.5, "capacity": 64.7, "svi": 0.38, "top_decile_gap": 0, "stratum": "metropolitan", "scored": 1}, "geometry": {"type": "Polygon", "coordinates": [[[-77.0694, 38.9543], [-77.0617, 38.941], [-77.0765, 38.9422], [-77.0785, 38.9466], [-77.0694, 38.9543]]]}}, {"type": "Feature", "properties": {"fips": "11001010300", "gap_national": -25.8, "gap_stratum": -20.9, "burden": 36.7, "capacity": 58.3, "svi": 0.78, "top_decile_gap": 0, "stratum": "metropolitan", "scored": 1}, "geometry": {"type": "Polygon", "coordinates": [[[-77.033, 38.978], [-77.0264, 38.978], [-77.0266, 38.9843], [-77.0187, 38.9783], [-77.0254, 38.9699], [-77.0273, 38.9699], [-77.027, 38.9724], [-77.0364, 38.9723], [-77.033, 38.978]]]}}, {"type": "Feature", "properties": {"fips": "11001001902", "gap_national": -59.8, "gap_stratum": -53.3, "burden": 33.9, "capacity": 82.3, "svi": 0.47, "top_decile_gap": 0, "stratum": "metropolitan", "scored": 1}, "geometry": {"type": "Polygon", "coordinates": [[[-77.0199, 38.9699], [-77.0148, 38.9699], [-77.0096, 38.9639], [-77.0093, 38.9602], [-77.0199, 38.9587], [-77.0199, 38.9699]]]}}, {"type": "Feature", "properties": {"fips": "11001002302", "gap_national": -44.1, "gap_stratum": -35.8, "burden": 51.9, "capacity": 89.4, "svi": 0.68, "top_decile_gap": 0, "stratum": "metropolitan", "scored": 1}, "geometry": {"type": "Polygon", "coordinates": [[[-77.0109, 38.9446], [-77.0064, 38.9366], [-77.0021, 38.9362], [-77.001, 38.9312], [-77.0063, 38.927], [-77.0145, 38.9263], [-77.0181, 38.9285], [-77.0192, 38.9369], [-77.0109, 38.9446]]]}}, {"type": "Feature", "properties": {"fips": "11001003301", "gap_national": -50.9, "gap_stratum": -53.1, "burden": 2.0, "capacity": 52.3, "svi": 0.05, "top_decile_gap": 0, "stratum": "metropolitan", "scored": 1}, "geometry": {"type": "Polygon", "coordinates": [[[-77.0121, 38.9213], [-77.0121, 38.9263], [-77.0089, 38.9267], [-77.009, 38.9169], [-77.0143, 38.9151], [-77.0149, 38.9207], [-77.0121, 38.9213]]]}}, {"type": "Feature", "properties": {"fips": "11001000704", "gap_national": -64.7, "gap_stratum": -65.7, "burden": 2.7, "capacity": 61.6, "svi": 0.28, "top_decile_gap": 0, "stratum": "metropolitan", "scored": 1}, "geometry": {"type": "Polygon", "coordinates": [[[-77.0724, 38.9335], [-77.0739, 38.9256], [-77.077, 38.9257], [-77.077, 38.9314], [-77.0796, 38.9335], [-77.0724, 38.9335]]]}}, {"type": "Feature", "properties": {"fips": "11001005501", "gap_national": -47.5, "gap_stratum": -49.9, "burden": 1.1, "capacity": 49.7, "svi": 0.14, "top_decile_gap": 0, "stratum": "metropolitan", "scored": 1}, "geometry": {"type": "Polygon", "coordinates": [[[-77.0514, 38.9072], [-77.0457, 38.9072], [-77.0496, 38.9022], [-77.0514, 38.9072]]]}}, {"type": "Feature", "properties": {"fips": "11001005203", "gap_national": -38.7, "gap_stratum": -41.2, "burden": 1.3, "capacity": 43.4, "svi": 0.28, "top_decile_gap": 0, "stratum": "metropolitan", "scored": 1}, "geometry": {"type": "Polygon", "coordinates": [[[-77.0346, 38.9096], [-77.032, 38.9096], [-77.0315, 38.9055], [-77.0346, 38.9096]]]}}, {"type": "Feature", "properties": {"fips": "11001005004", "gap_national": -12.0, "gap_stratum": -11.9, "burden": 13.9, "capacity": 28.3, "svi": 0.58, "top_decile_gap": 0, "stratum": "metropolitan", "scored": 1}, "geometry": {"type": "Polygon", "coordinates": [[[-77.027, 38.9096], [-77.027, 38.9039], [-77.0296, 38.9048], [-77.0303, 38.9097], [-77.027, 38.9096]]]}}, {"type": "Feature", "properties": {"fips": "11001009510", "gap_national": 35.7, "gap_stratum": 41.7, "burden": 59.6, "capacity": 32.4, "svi": 0.95, "top_decile_gap": 0, "stratum": "metropolitan", "scored": 1}, "geometry": {"type": "Polygon", "coordinates": [[[-77.0089, 38.946], [-77.009, 38.9524], [-77.0048, 38.9517], [-77.0032, 38.9463], [-77.0005, 38.9474], [-76.9976, 38.9407], [-77.0044, 38.9407], [-77.0109, 38.9446], [-77.0089, 38.946]]]}}, {"type": "Feature", "properties": {"fips": "11001000102", "gap_national": -78.5, "gap_stratum": -77.8, "burden": 5.4, "capacity": 72.5, "svi": 0.08, "top_decile_gap": 0, "stratum": "metropolitan", "scored": 1}, "geometry": {"type": "Polygon", "coordinates": [[[-77.0628, 38.9011], [-77.0628, 38.9064], [-77.0688, 38.917], [-77.0673, 38.9186], [-77.0591, 38.9183], [-77.0588, 38.9158], [-77.0512, 38.9108], [-77.0571, 38.9105], [-77.057, 38.9052], [-77.0554, 38.9053], [-77.0586, 38.9015], [-77.0559, 38.893], [-77.0647, 38.8918], [-77.0687, 38.901], [-77.0628, 38.9011]]]}}, {"type": "Feature", "properties": {"fips": "11001005302", "gap_national": -47.8, "gap_stratum": -50.2, "burden": 0.9, "capacity": 49.9, "svi": 0.1, "top_decile_gap": 0, "stratum": "metropolitan", "scored": 1}, "geometry": {"type": "Polygon", "coordinates": [[[-77.0393, 38.9141], [-77.0365, 38.9141], [-77.0365, 38.9111], [-77.0417, 38.9115], [-77.0393, 38.9141]]]}}, {"type": "Feature", "properties": {"fips": "11001005503", "gap_national": -40.4, "gap_stratum": -42.6, "burden": 4.8, "capacity": 46.0, "svi": 0.18, "top_decile_gap": 0, "stratum": "metropolitan", "scored": 1}, "geometry": {"type": "Polygon", "coordinates": [[[-77.0534, 38.9086], [-77.0488, 38.9096], [-77.0488, 38.9072], [-77.0514, 38.9072], [-77.0514, 38.903], [-77.0554, 38.9053], [-77.0534, 38.9086]]]}}, {"type": "Feature", "properties": {"fips": "11001000300", "gap_national": -47.8, "gap_stratum": -50.2, "burden": 1.5, "capacity": 50.0, "svi": 0.05, "top_decile_gap": 0, "stratum": "metropolitan", "scored": 1}, "geometry": {"type": "Polygon", "coordinates": [[[-77.0729, 38.9225], [-77.0694, 38.9177], [-77.0692, 38.9127], [-77.079, 38.9127], [-77.0826, 38.9215], [-77.0729, 38.9225]]]}}, {"type": "Feature", "properties": {"fips": "11001011100", "gap_national": -11.4, "gap_stratum": -3.8, "burden": 61.0, "capacity": 67.6, "svi": 0.83, "top_decile_gap": 0, "stratum": "metropolitan", "scored": 1}, "geometry": {"type": "Polygon", "coordinates": [[[-76.9634, 38.9352], [-76.9577, 38.9308], [-76.9652, 38.9253], [-76.955, 38.9183], [-76.9565, 38.9176], [-76.9436, 38.917], [-76.9536, 38.9144], [-76.962, 38.8971], [-76.9704, 38.8979], [-76.9702, 38.9034], [-76.9725, 38.9046], [-76.9702, 38.9056], [-76.9788, 38.9073], [-76.9751, 38.9141], [-76.979, 38.9199], [-76.9791, 38.9277], [-76.9634, 38.9352]]]}}, {"type": "Feature", "properties": {"fips": "11001007806", "gap_national": -17.9, "gap_stratum": -10.3, "burden": 51.9, "capacity": 64.8, "svi": 0.8, "top_decile_gap": 0, "stratum": "metropolitan", "scored": 1}, "geometry": {"type": "Polygon", "coordinates": [[[-76.9316, 38.9106], [-76.9235, 38.9041], [-76.9413, 38.9029], [-76.9429, 38.902], [-76.9316, 38.9106]]]}}, {"type": "Feature", "properties": {"fips": "11001000501", "gap_national": -51.8, "gap_stratum": -54.0, "burden": 1.5, "capacity": 52.7, "svi": 0.25, "top_decile_gap": 0, "stratum": "metropolitan", "scored": 1}, "geometry": {"type": "Polygon", "coordinates": [[[-77.054, 38.9212], [-77.0577, 38.9232], [-77.0576, 38.9262], [-77.0527, 38.9255], [-77.0557, 38.9308], [-77.0546, 38.9327], [-77.0518, 38.9339], [-77.0471, 38.9314], [-77.0449, 38.9266], [-77.0495, 38.9281], [-77.0485, 38.9228], [-77.0511, 38.9199], [-77.0591, 38.9183], [-77.054, 38.9212]]]}}, {"type": "Feature", "properties": {"fips": "11001009902", "gap_national": -35.6, "gap_stratum": -27.2, "burden": 57.8, "capacity": 86.6, "svi": 0.47, "top_decile_gap": 0, "stratum": "metropolitan", "scored": 1}, "geometry": {"type": "Polygon", "coordinates": [[[-76.9498, 38.8679], [-76.949, 38.8784], [-76.9458, 38.8809], [-76.935, 38.8728], [-76.9467, 38.8636], [-76.953, 38.8663], [-76.9498, 38.8679]]]}}, {"type": "Feature", "properties": {"fips": "11001009906", "gap_national": -23.3, "gap_stratum": -15.0, "burden": 54.2, "capacity": 70.4, "svi": 0.89, "top_decile_gap": 0, "stratum": "metropolitan", "scored": 1}, "geometry": {"type": "Polygon", "coordinates": [[[-76.9379, 38.8899], [-76.932, 38.8898], [-76.9329, 38.8856], [-76.9406, 38.8865], [-76.9379, 38.8899]]]}}, {"type": "Feature", "properties": {"fips": "11001000902", "gap_national": -81.0, "gap_stratum": -79.9, "burden": 6.4, "capacity": 75.0, "svi": 0.17, "top_decile_gap": 0, "stratum": "metropolitan", "scored": 1}, "geometry": {"type": "Polygon", "coordinates": [[[-77.1125, 38.9401], [-77.1116, 38.9357], [-77.104, 38.9274], [-77.0971, 38.9325], [-77.0932, 38.9326], [-77.0964, 38.9297], [-77.0954, 38.9271], [-77.0986, 38.9211], [-77.1054, 38.9172], [-77.1198, 38.9343], [-77.1125, 38.9401]]]}}, {"type": "Feature", "properties": {"fips": "11001001100", "gap_national": -84.6, "gap_stratum": -82.9, "burden": 10.5, "capacity": 81.4, "svi": 0.26, "top_decile_gap": 0, "stratum": "metropolitan", "scored": 1}, "geometry": {"type": "Polygon", "coordinates": [[[-77.0769, 38.967], [-77.0698, 38.9521], [-77.0737, 38.9522], [-77.0789, 38.9465], [-77.0858, 38.9609], [-77.0769, 38.967]]]}}, {"type": "Feature", "properties": {"fips": "11001001500", "gap_national": -84.2, "gap_stratum": -81.8, "burden": 15.1, "capacity": 86.2, "svi": 0.09, "top_decile_gap": 0, "stratum": "metropolitan", "scored": 1}, "geometry": {"type": "Polygon", "coordinates": [[[-77.0517, 38.9871], [-77.0399, 38.9822], [-77.0446, 38.98], [-77.0394, 38.9739], [-77.0467, 38.9677], [-77.0475, 38.9646], [-77.0435, 38.9614], [-77.0462, 38.9604], [-77.0562, 38.961], [-77.0591, 38.9659], [-77.0684, 38.9658], [-77.0716, 38.9718], [-77.0517, 38.9871]]]}}, {"type": "Feature", "properties": {"fips": "11001001600", "gap_national": -71.2, "gap_stratum": -65.7, "burden": 30.7, "capacity": 94.6, "svi": 0.2, "top_decile_gap": 0, "stratum": "metropolitan", "scored": 1}, "geometry": {"type": "Polygon", "coordinates": [[[-77.041, 38.9951], [-77.0266, 38.9843], [-77.0264, 38.978], [-77.033, 38.978], [-77.0364, 38.9723], [-77.0399, 38.9728], [-77.0399, 38.9764], [-77.0446, 38.98], [-77.0399, 38.9822], [-77.0517, 38.9871], [-77.041, 38.9951]]]}}, {"type": "Feature", "properties": {"fips": "11001001702", "gap_national": -68.9, "gap_stratum": -68.3, "burden": 8.9, "capacity": 67.1, "svi": 0.41, "top_decile_gap": 0, "stratum": "metropolitan", "scored": 1}, "geometry": {"type": "Polygon", "coordinates": [[[-77.0187, 38.9783], [-77.0086, 38.9703], [-77.0089, 38.9648], [-77.0148, 38.9699], [-77.0254, 38.9699], [-77.0187, 38.9783]]]}}, {"type": "Feature", "properties": {"fips": "11001002001", "gap_national": 38.9, "gap_stratum": 43.7, "burden": 67.1, "capacity": 37.2, "svi": 0.95, "top_decile_gap": 0, "stratum": "metropolitan", "scored": 1}, "geometry": {"type": "Polygon", "coordinates": [[[-77.0403, 38.963], [-77.0285, 38.9613], [-77.0364, 38.9525], [-77.0364, 38.9562], [-77.0395, 38.9565], [-77.0387, 38.9597], [-77.0435, 38.9614], [-77.0403, 38.963]]]}}, {"type": "Feature", "properties": {"fips": "11001002002", "gap_national": -59.9, "gap_stratum": -58.0, "burden": 17.0, "capacity": 66.0, "svi": 0.4, "top_decile_gap": 0, "stratum": "metropolitan", "scored": 1}, "geometry": {"type": "Polygon", "coordinates": [[[-77.0302, 38.9599], [-77.028, 38.9612], [-77.0266, 38.9461], [-77.0364, 38.9483], [-77.0364, 38.9525], [-77.0302, 38.9599]]]}}, {"type": "Feature", "properties": {"fips": "11001002301", "gap_national": -49.5, "gap_stratum": -49.2, "burden": 15.0, "capacity": 57.7, "svi": 0.55, "top_decile_gap": 0, "stratum": "metropolitan", "scored": 1}, "geometry": {"type": "Polygon", "coordinates": [[[-77.0194, 38.9463], [-77.0115, 38.9443], [-77.019, 38.9374], [-77.0194, 38.9463]]]}}, {"type": "Feature", "properties": {"fips": "11001002600", "gap_national": -76.1, "gap_stratum": -73.3, "burden": 15.8, "capacity": 77.7, "svi": 0.37, "top_decile_gap": 0, "stratum": "metropolitan", "scored": 1}, "geometry": {"type": "Polygon", "coordinates": [[[-77.044, 38.9482], [-77.0471, 38.9497], [-77.0422, 38.9546], [-77.0405, 38.9596], [-77.0422, 38.9604], [-77.0387, 38.9597], [-77.0395, 38.9565], [-77.0364, 38.9562], [-77.0364, 38.9382], [-77.0483, 38.9348], [-77.0479, 38.937], [-77.052, 38.9377], [-77.044, 38.9482]]]}}, {"type": "Feature", "properties": {"fips": "11001002900", "gap_national": -21.0, "gap_stratum": -22.2, "burden": 6.6, "capacity": 31.2, "svi": 0.56, "top_decile_gap": 0, "stratum": "metropolitan", "scored": 1}, "geometry": {"type": "Polygon", "coordinates": [[[-77.0327, 38.9371], [-77.0252, 38.9351], [-77.0327, 38.9303], [-77.0327, 38.9371]]]}}, {"type": "Feature", "properties": {"fips": "11001003000", "gap_national": -12.8, "gap_stratum": -13.0, "burden": 12.3, "capacity": 27.6, "svi": 0.79, "top_decile_gap": 0, "stratum": "metropolitan", "scored": 1}, "geometry": {"type": "Polygon", "coordinates": [[[-77.0283, 38.9318], [-77.027, 38.9267], [-77.0324, 38.9266], [-77.0327, 38.9303], [-77.0283, 38.9318]]]}}, {"type": "Feature", "properties": {"fips": "11001003600", "gap_national": -40.4, "gap_stratum": -42.7, "burden": 3.4, "capacity": 45.4, "svi": 0.32, "top_decile_gap": 0, "stratum": "metropolitan", "scored": 1}, "geometry": {"type": "Polygon", "coordinates": [[[-77.027, 38.9267], [-77.027, 38.9208], [-77.0319, 38.9201], [-77.0324, 38.9266], [-77.027, 38.9267]]]}}, {"type": "Feature", "properties": {"fips": "11001004100", "gap_national": -71.9, "gap_stratum": -71.7, "burden": 5.6, "capacity": 67.6, "svi": 0.32, "top_decile_gap": 0, "stratum": "metropolitan", "scored": 1}, "geometry": {"type": "Polygon", "coordinates": [[[-77.0502, 38.9212], [-77.0461, 38.9144], [-77.0501, 38.9096], [-77.0588, 38.9158], [-77.0502, 38.9212]]]}}, {"type": "Feature", "properties": {"fips": "11001004202", "gap_national": -42.4, "gap_stratum": -44.9, "burden": 1.2, "capacity": 46.2, "svi": 0.24, "top_decile_gap": 0, "stratum": "metropolitan", "scored": 1}, "geometry": {"type": "Polygon", "coordinates": [[[-77.0417, 38.9168], [-77.0417, 38.9141], [-77.0393, 38.9141], [-77.043, 38.9101], [-77.0461, 38.9144], [-77.0417, 38.9168]]]}}, {"type": "Feature", "properties": {"fips": "11001005001", "gap_national": -47.9, "gap_stratum": -50.4, "burden": 0.8, "capacity": 50.0, "svi": 0.03, "top_decile_gap": 0, "stratum": "metropolitan", "scored": 1}, "geometry": {"type": "Polygon", "coordinates": [[[-77.032, 38.9141], [-77.027, 38.9141], [-77.027, 38.9096], [-77.032, 38.911], [-77.032, 38.9141]]]}}, {"type": "Feature", "properties": {"fips": "11001010700", "gap_national": -32.4, "gap_stratum": -34.8, "burden": 0.4, "capacity": 38.2, "svi": 0.27, "top_decile_gap": 0, "stratum": "metropolitan", "scored": 1}, "geometry": {"type": "Polygon", "coordinates": [[[-77.0439, 38.9091], [-77.0365, 38.907], [-77.0379, 38.8987], [-77.0496, 38.9029], [-77.0439, 38.9091]]]}}, {"type": "Feature", "properties": {"fips": "11001006600", "gap_national": -64.1, "gap_stratum": -65.2, "burden": 2.4, "capacity": 61.1, "svi": 0.27, "top_decile_gap": 0, "stratum": "metropolitan", "scored": 1}, "geometry": {"type": "Polygon", "coordinates": [[[-76.995, 38.8898], [-76.995, 38.8846], [-77.002, 38.8876], [-77.0035, 38.8898], [-76.995, 38.8898]]]}}, {"type": "Feature", "properties": {"fips": "11001006804", "gap_national": 82.4, "gap_stratum": 86.8, "burden": 78.9, "capacity": 4.2, "svi": 0.66, "top_decile_gap": 1, "stratum": "metropolitan", "scored": 1}, "geometry": {"type": "Polygon", "coordinates": [[[-76.9808, 38.8823], [-76.9773, 38.8837], [-76.9773, 38.8898], [-76.974, 38.8903], [-76.9748, 38.8944], [-76.9695, 38.8978], [-76.962, 38.8971], [-76.9634, 38.8899], [-76.9733, 38.8784], [-76.978, 38.8769], [-76.9808, 38.8823]]]}}, {"type": "Feature", "properties": {"fips": "11001004300", "gap_national": -48.1, "gap_stratum": -50.5, "burden": 1.4, "capacity": 50.2, "svi": 0.13, "top_decile_gap": 0, "stratum": "metropolitan", "scored": 1}, "geometry": {"type": "Polygon", "coordinates": [[[-77.0365, 38.9191], [-77.0319, 38.9201], [-77.032, 38.9141], [-77.0365, 38.9141], [-77.0365, 38.9191]]]}}, {"type": "Feature", "properties": {"fips": "11001004702", "gap_national": -36.4, "gap_stratum": -39.0, "burden": 0.9, "capacity": 41.5, "svi": 0.29, "top_decile_gap": 0, "stratum": "metropolitan", "scored": 1}, "geometry": {"type": "Polygon", "coordinates": [[[-77.0091, 38.9025], [-77.0091, 38.8975], [-77.0219, 38.9021], [-77.0091, 38.9025]]]}}, {"type": "Feature", "properties": {"fips": "11001007401", "gap_national": 60.1, "gap_stratum": 59.1, "burden": 89.9, "capacity": 39.0, "svi": 0.98, "top_decile_gap": 1, "stratum": "metropolitan", "scored": 1}, "geometry": {"type": "Polygon", "coordinates": [[[-76.9901, 38.8713], [-76.9884, 38.8691], [-76.9943, 38.8607], [-76.9923, 38.8535], [-77.0034, 38.8607], [-77.0018, 38.8654], [-77.0055, 38.8687], [-77.0034, 38.8709], [-76.9901, 38.8713]]]}}, {"type": "Feature", "properties": {"fips": "11001007407", "gap_national": 23.7, "gap_stratum": 28.7, "burden": 64.4, "capacity": 46.6, "svi": 0.89, "top_decile_gap": 0, "stratum": "metropolitan", "scored": 1}, "geometry": {"type": "Polygon", "coordinates": [[[-76.9912, 38.8633], [-76.9831, 38.8569], [-76.9772, 38.8573], [-76.9746, 38.855], [-76.9833, 38.8534], [-76.9877, 38.858], [-76.9936, 38.8585], [-76.9938, 38.8615], [-76.9912, 38.8633]]]}}, {"type": "Feature", "properties": {"fips": "11001007603", "gap_national": -56.0, "gap_stratum": -48.5, "burden": 41.2, "capacity": 88.6, "svi": 0.49, "top_decile_gap": 0, "stratum": "metropolitan", "scored": 1}, "geometry": {"type": "Polygon", "coordinates": [[[-76.9513, 38.8656], [-76.9467, 38.8636], [-76.9619, 38.8519], [-76.9682, 38.8589], [-76.9513, 38.8656]]]}}, {"type": "Feature", "properties": {"fips": "11001007708", "gap_national": -11.7, "gap_stratum": -4.1, "burden": 60.4, "capacity": 67.3, "svi": 0.92, "top_decile_gap": 0, "stratum": "metropolitan", "scored": 1}, "geometry": {"type": "Polygon", "coordinates": [[[-76.9634, 38.8899], [-76.953, 38.8898], [-76.9589, 38.8817], [-76.9718, 38.8802], [-76.9634, 38.8899]]]}}, {"type": "Feature", "properties": {"fips": "11001007808", "gap_national": 18.0, "gap_stratum": 22.0, "burden": 73.5, "capacity": 57.6, "svi": 0.92, "top_decile_gap": 0, "stratum": "metropolitan", "scored": 1}, "geometry": {"type": "Polygon", "coordinates": [[[-76.9263, 38.8966], [-76.9134, 38.896], [-76.9094, 38.8928], [-76.9133, 38.8898], [-76.928, 38.8898], [-76.9263, 38.8966]]]}}, {"type": "Feature", "properties": {"fips": "11001007809", "gap_national": 11.1, "gap_stratum": 16.5, "burden": 62.6, "capacity": 53.8, "svi": 0.83, "top_decile_gap": 0, "stratum": "metropolitan", "scored": 1}, "geometry": {"type": "Polygon", "coordinates": [[[-76.9317, 38.903], [-76.9235, 38.9041], [-76.9251, 38.8997], [-76.9338, 38.899], [-76.9426, 38.9019], [-76.9317, 38.903]]]}}, {"type": "Feature", "properties": {"fips": "11001008301", "gap_national": -48.2, "gap_stratum": -50.7, "burden": 1.1, "capacity": 50.2, "svi": 0.06, "top_decile_gap": 0, "stratum": "metropolitan", "scored": 1}, "geometry": {"type": "Polygon", "coordinates": [[[-76.9984, 38.9002], [-76.9984, 38.8931], [-77.0035, 38.8952], [-77.0036, 38.9002], [-76.9984, 38.9002]]]}}, {"type": "Feature", "properties": {"fips": "11001009601", "gap_national": -4.1, "gap_stratum": 2.7, "burden": 60.0, "capacity": 61.7, "svi": 0.98, "top_decile_gap": 0, "stratum": "metropolitan", "scored": 1}, "geometry": {"type": "Polygon", "coordinates": [[[-76.9536, 38.9144], [-76.946, 38.9153], [-76.9419, 38.9186], [-76.9316, 38.9106], [-76.9437, 38.9014], [-76.951, 38.9082], [-76.958, 38.9062], [-76.9536, 38.9144]]]}}, {"type": "Feature", "properties": {"fips": "11001009602", "gap_national": 62.0, "gap_stratum": 62.7, "burden": 84.8, "capacity": 33.7, "svi": 0.89, "top_decile_gap": 1, "stratum": "metropolitan", "scored": 1}, "geometry": {"type": "Polygon", "coordinates": [[[-76.958, 38.9062], [-76.951, 38.9082], [-76.9437, 38.9014], [-76.951, 38.8955], [-76.962, 38.8971], [-76.958, 38.9062]]]}}, {"type": "Feature", "properties": {"fips": "11001009804", "gap_national": 11.9, "gap_stratum": 16.7, "burden": 70.6, "capacity": 59.4, "svi": 0.92, "top_decile_gap": 0, "stratum": "metropolitan", "scored": 1}, "geometry": {"type": "Polygon", "coordinates": [[[-77.0023, 38.8425], [-76.9942, 38.8437], [-76.9935, 38.8375], [-77.0006, 38.834], [-77.0006, 38.8419], [-77.0042, 38.8404], [-77.0023, 38.8425]]]}}, {"type": "Feature", "properties": {"fips": "11001009810", "gap_national": 30.1, "gap_stratum": 33.6, "burden": 71.8, "capacity": 48.2, "svi": 0.83, "top_decile_gap": 0, "stratum": "metropolitan", "scored": 1}, "geometry": {"type": "Polygon", "coordinates": [[[-77.002, 38.831], [-77.0022, 38.822], [-77.0073, 38.8261], [-77.0077, 38.8314], [-77.002, 38.831]]]}}, {"type": "Feature", "properties": {"fips": "11001008903", "gap_national": 31.5, "gap_stratum": 37.0, "burden": 61.1, "capacity": 37.6, "svi": 0.77, "top_decile_gap": 0, "stratum": "metropolitan", "scored": 1}, "geometry": {"type": "Polygon", "coordinates": [[[-76.9788, 38.9073], [-76.9702, 38.9056], [-76.9824, 38.9005], [-76.9788, 38.9073]]]}}, {"type": "Feature", "properties": {"fips": "11001004401", "gap_national": -46.0, "gap_stratum": -48.5, "burden": 0.6, "capacity": 48.6, "svi": 0.07, "top_decile_gap": 0, "stratum": "metropolitan", "scored": 1}, "geometry": {"type": "Polygon", "coordinates": [[[-77.0258, 38.9204], [-77.024, 38.917], [-77.032, 38.917], [-77.0319, 38.9201], [-77.0258, 38.9204]]]}}, {"type": "Feature", "properties": {"fips": "11001002703", "gap_national": -47.5, "gap_stratum": -49.8, "burden": 2.1, "capacity": 50.0, "svi": 0.43, "top_decile_gap": 0, "stratum": "metropolitan", "scored": 1}, "geometry": {"type": "Polygon", "coordinates": [[[-77.038, 38.9359], [-77.0365, 38.9317], [-77.0431, 38.9323], [-77.0442, 38.9342], [-77.038, 38.9359]]]}}, {"type": "Feature", "properties": {"fips": "11001003801", "gap_national": -51.1, "gap_stratum": -53.5, "burden": 0.7, "capacity": 52.1, "svi": 0.04, "top_decile_gap": 0, "stratum": "metropolitan", "scored": 1}, "geometry": {"type": "Polygon", "coordinates": [[[-77.0408, 38.9198], [-77.0365, 38.9227], [-77.0365, 38.9191], [-77.0417, 38.9168], [-77.0408, 38.9198]]]}}, {"type": "Feature", "properties": {"fips": "11001002704", "gap_national": -34.9, "gap_stratum": -37.2, "burden": 3.8, "capacity": 41.3, "svi": 0.4, "top_decile_gap": 0, "stratum": "metropolitan", "scored": 1}, "geometry": {"type": "Polygon", "coordinates": [[[-77.0454, 38.9359], [-77.0364, 38.9382], [-77.0365, 38.935], [-77.0442, 38.9327], [-77.0493, 38.9338], [-77.0454, 38.9359]]]}}, {"type": "Feature", "properties": {"fips": "11001005602", "gap_national": -54.6, "gap_stratum": -56.2, "burden": 4.9, "capacity": 55.8, "svi": 0.56, "top_decile_gap": 0, "stratum": "metropolitan", "scored": 1}, "geometry": {"type": "Polygon", "coordinates": [[[-77.0501, 38.8996], [-77.0501, 38.896], [-77.0526, 38.8961], [-77.0531, 38.8987], [-77.0567, 38.8977], [-77.0579, 38.9023], [-77.0501, 38.8996]]]}}, {"type": "Feature", "properties": {"fips": "11001005202", "gap_national": -51.2, "gap_stratum": -53.5, "burden": 1.7, "capacity": 52.4, "svi": 0.03, "top_decile_gap": 0, "stratum": "metropolitan", "scored": 1}, "geometry": {"type": "Polygon", "coordinates": [[[-77.0365, 38.9141], [-77.032, 38.9141], [-77.0346, 38.9066], [-77.0365, 38.9141]]]}}, {"type": "Feature", "properties": {"fips": "11001010603", "gap_national": -37.1, "gap_stratum": -39.6, "burden": 0.4, "capacity": 41.9, "svi": 0.06, "top_decile_gap": 0, "stratum": "metropolitan", "scored": 1}, "geometry": {"type": "Polygon", "coordinates": [[[-77.0034, 38.9056], [-77.0035, 38.8973], [-77.0056, 38.896], [-77.0091, 38.8976], [-77.0091, 38.9047], [-77.0034, 38.9056]]]}}, {"type": "Feature", "properties": {"fips": "11001011002", "gap_national": -80.8, "gap_stratum": -77.9, "burden": 17.8, "capacity": 85.4, "svi": 0.3, "top_decile_gap": 0, "stratum": "metropolitan", "scored": 1}, "geometry": {"type": "Polygon", "coordinates": [[[-77.0176, 38.8765], [-77.017, 38.872], [-77.0143, 38.872], [-77.0154, 38.86], [-77.0202, 38.8573], [-77.0203, 38.87], [-77.0238, 38.8764], [-77.0176, 38.8765]]]}}, {"type": "Feature", "properties": {"fips": "11001000804", "gap_national": -73.2, "gap_stratum": -73.2, "burden": 3.8, "capacity": 67.8, "svi": 0.15, "top_decile_gap": 0, "stratum": "metropolitan", "scored": 1}, "geometry": {"type": "Polygon", "coordinates": [[[-77.0986, 38.9211], [-77.0953, 38.9315], [-77.0877, 38.9358], [-77.084, 38.9303], [-77.0806, 38.9302], [-77.0826, 38.9193], [-77.0887, 38.9192], [-77.0887, 38.9164], [-77.0947, 38.9156], [-77.101, 38.911], [-77.1054, 38.9172], [-77.0986, 38.9211]]]}}, {"type": "Feature", "properties": {"fips": "11001003701", "gap_national": -34.6, "gap_stratum": -36.9, "burden": 2.2, "capacity": 40.5, "svi": 0.21, "top_decile_gap": 0, "stratum": "metropolitan", "scored": 1}, "geometry": {"type": "Polygon", "coordinates": [[[-77.0365, 38.9233], [-77.0321, 38.9236], [-77.0319, 38.9201], [-77.0365, 38.9204], [-77.0365, 38.9233]]]}}, {"type": "Feature", "properties": {"fips": "11001000703", "gap_national": -83.6, "gap_stratum": -80.4, "burden": 19.9, "capacity": 95.0, "svi": 0.15, "top_decile_gap": 0, "stratum": "metropolitan", "scored": 1}, "geometry": {"type": "Polygon", "coordinates": [[[-77.0801, 38.9337], [-77.077, 38.9314], [-77.077, 38.9262], [-77.0817, 38.9263], [-77.0801, 38.9337]]]}}, {"type": "Feature", "properties": {"fips": "11001000702", "gap_national": -42.7, "gap_stratum": -45.1, "burden": 2.2, "capacity": 46.7, "svi": 0.15, "top_decile_gap": 0, "stratum": "metropolitan", "scored": 1}, "geometry": {"type": "Polygon", "coordinates": [[[-77.0817, 38.9263], [-77.0732, 38.9262], [-77.0729, 38.9225], [-77.0826, 38.9215], [-77.0817, 38.9263]]]}}, {"type": "Feature", "properties": {"fips": "11001001402", "gap_national": -87.1, "gap_stratum": -85.3, "burden": 12.1, "capacity": 86.1, "svi": 0.34, "top_decile_gap": 0, "stratum": "metropolitan", "scored": 1}, "geometry": {"type": "Polygon", "coordinates": [[[-77.0662, 38.961], [-77.062, 38.9658], [-77.0591, 38.9659], [-77.0562, 38.9636], [-77.0561, 38.9586], [-77.0581, 38.9567], [-77.066, 38.9586], [-77.0694, 38.9543], [-77.0733, 38.961], [-77.0662, 38.961]]]}}, {"type": "Feature", "properties": {"fips": "11001002101", "gap_national": -35.2, "gap_stratum": -35.1, "burden": 17.4, "capacity": 49.8, "svi": 0.73, "top_decile_gap": 0, "stratum": "metropolitan", "scored": 1}, "geometry": {"type": "Polygon", "coordinates": [[[-77.0199, 38.9587], [-77.0197, 38.9521], [-77.0274, 38.9519], [-77.028, 38.961], [-77.0199, 38.9587]]]}}, {"type": "Feature", "properties": {"fips": "11001003500", "gap_national": -26.0, "gap_stratum": -28.0, "burden": 1.4, "capacity": 33.1, "svi": 0.49, "top_decile_gap": 0, "stratum": "metropolitan", "scored": 1}, "geometry": {"type": "Polygon", "coordinates": [[[-77.023, 38.9272], [-77.0219, 38.9163], [-77.027, 38.9208], [-77.027, 38.9267], [-77.023, 38.9272]]]}}, {"type": "Feature", "properties": {"fips": "11001007304", "gap_national": 16.4, "gap_stratum": 21.1, "burden": 69.0, "capacity": 55.3, "svi": 0.91, "top_decile_gap": 0, "stratum": "metropolitan", "scored": 1}, "geometry": {"type": "Polygon", "coordinates": [[[-76.9813, 38.8466], [-76.9789, 38.8422], [-76.9729, 38.8431], [-76.985, 38.8338], [-76.9887, 38.8386], [-76.9935, 38.8375], [-76.9942, 38.8437], [-76.9813, 38.8466]]]}}, {"type": "Feature", "properties": {"fips": "11001007601", "gap_national": 5.1, "gap_stratum": 10.8, "burden": 69.0, "capacity": 62.8, "svi": 0.93, "top_decile_gap": 0, "stratum": "metropolitan", "scored": 1}, "geometry": {"type": "Polygon", "coordinates": [[[-76.978, 38.8769], [-76.9713, 38.8739], [-76.9707, 38.8682], [-76.9844, 38.8666], [-76.9887, 38.8675], [-76.9901, 38.8713], [-76.978, 38.8769]]]}}, {"type": "Feature", "properties": {"fips": "11001008200", "gap_national": -53.6, "gap_stratum": -55.8, "burden": 1.4, "capacity": 54.0, "svi": 0.09, "top_decile_gap": 0, "stratum": "metropolitan", "scored": 1}, "geometry": {"type": "Polygon", "coordinates": [[[-77.0035, 38.8952], [-76.995, 38.8917], [-76.995, 38.8898], [-77.0035, 38.8898], [-77.0035, 38.8919], [-77.0059, 38.892], [-77.0035, 38.8952]]]}}, {"type": "Feature", "properties": {"fips": "11001008702", "gap_national": -43.3, "gap_stratum": -45.6, "burden": 3.1, "capacity": 47.4, "svi": 0.25, "top_decile_gap": 0, "stratum": "metropolitan", "scored": 1}, "geometry": {"type": "Polygon", "coordinates": [[[-77.0035, 38.9187], [-76.996, 38.9214], [-77.0025, 38.908], [-77.0049, 38.9106], [-77.0035, 38.9187]]]}}, {"type": "Feature", "properties": {"fips": "11001009503", "gap_national": -49.2, "gap_stratum": -41.1, "burden": 46.0, "capacity": 86.5, "svi": 0.33, "top_decile_gap": 0, "stratum": "metropolitan", "scored": 1}, "geometry": {"type": "Polygon", "coordinates": [[[-76.9859, 38.9526], [-76.9778, 38.9463], [-76.9804, 38.943], [-76.9798, 38.9351], [-76.9888, 38.9346], [-76.9893, 38.9524], [-76.9859, 38.9526]]]}}, {"type": "Feature", "properties": {"fips": "11001009508", "gap_national": -42.6, "gap_stratum": -38.3, "burden": 29.1, "capacity": 63.5, "svi": 0.63, "top_decile_gap": 0, "stratum": "metropolitan", "scored": 1}, "geometry": {"type": "Polygon", "coordinates": [[[-76.9919, 38.9572], [-76.9859, 38.9526], [-77.002, 38.9511], [-77.0005, 38.9474], [-77.0032, 38.9463], [-77.0048, 38.9517], [-77.009, 38.9524], [-77.009, 38.9548], [-76.9919, 38.9572]]]}}, {"type": "Feature", "properties": {"fips": "11001009905", "gap_national": -5.6, "gap_stratum": 1.5, "burden": 62.5, "capacity": 64.7, "svi": 0.7, "top_decile_gap": 0, "stratum": "metropolitan", "scored": 1}, "geometry": {"type": "Polygon", "coordinates": [[[-76.9276, 38.8887], [-76.9186, 38.8857], [-76.924, 38.8814], [-76.9293, 38.8808], [-76.9276, 38.8887]]]}}, {"type": "Feature", "properties": {"fips": "11001000202", "gap_national": -42.4, "gap_stratum": -44.8, "burden": 2.4, "capacity": 46.6, "svi": 0.19, "top_decile_gap": 0, "stratum": "metropolitan", "scored": 1}, "geometry": {"type": "Polygon", "coordinates": [[[-77.0715, 38.9051], [-77.0692, 38.9116], [-77.0731, 38.9126], [-77.0692, 38.9127], [-77.0694, 38.9177], [-77.0628, 38.9064], [-77.0628, 38.9011], [-77.0793, 38.9016], [-77.0794, 38.9056], [-77.0715, 38.9051]]]}}, {"type": "Feature", "properties": {"fips": "11001010900", "gap_national": 59.2, "gap_stratum": 63.1, "burden": 74.5, "capacity": 26.6, "svi": 0.94, "top_decile_gap": 1, "stratum": "metropolitan", "scored": 1}, "geometry": {"type": "Polygon", "coordinates": [[[-77.0388, 38.8196], [-77.0175, 38.8217], [-77.0174, 38.8236], [-77.0121, 38.8219], [-77.0119, 38.8236], [-77.006, 38.8241], [-77.0015, 38.8214], [-77.039, 38.7928], [-77.0388, 38.8196]]]}}, {"type": "Feature", "properties": {"fips": "11001007409", "gap_national": 52.4, "gap_stratum": 55.1, "burden": 76.5, "capacity": 34.9, "svi": 0.93, "top_decile_gap": 0, "stratum": "metropolitan", "scored": 1}, "geometry": {"type": "Polygon", "coordinates": [[[-76.9709, 38.848], [-76.9666, 38.8482], [-76.9779, 38.8418], [-76.9807, 38.8454], [-76.9709, 38.848]]]}}, {"type": "Feature", "properties": {"fips": "11001007604", "gap_national": -28.1, "gap_stratum": -20.0, "burden": 62.5, "capacity": 84.0, "svi": 0.72, "top_decile_gap": 0, "stratum": "metropolitan", "scored": 1}, "geometry": {"type": "Polygon", "coordinates": [[[-76.9698, 38.8731], [-76.9513, 38.8656], [-76.9682, 38.8589], [-76.9713, 38.8739], [-76.9698, 38.8731]]]}}, {"type": "Feature", "properties": {"fips": "11001980000", "gap_national": -83.7, "gap_stratum": -81.0, "burden": 16.8, "capacity": 88.1, "svi": 0.0, "top_decile_gap": 0, "stratum": "metropolitan", "scored": 1}, "geometry": {"type": "Polygon", "coordinates": [[[-77.0559, 38.893], [-77.0567, 38.8977], [-77.0531, 38.8987], [-77.0526, 38.8961], [-77.0395, 38.8921], [-77.0395, 38.8988], [-77.0351, 38.9002], [-77.0336, 38.8955], [-77.0164, 38.8918], [-77.0091, 38.8951], [-77.0091, 38.8976], [-77.0035, 38.8973], [-77.0059, 38.891], [-77.0035, 38.8919], [-77.002, 38.8876], [-77.0091, 38.8839], [-77.0138, 38.8876], [-77.032, 38.8876], [-77.0324, 38.8824], [-77.0238, 38.8764], [-77.0203, 38.87], [-77.0202, 38.8573], [-77.0318, 38.8509], [-77.0393, 38.8643], [-77.0406, 38.8712], [-77.0454, 38.8752], [-77.0463, 38.8713], [-77.0491, 38.8707], [-77.0541, 38.8791], [-77.0583, 38.8801], [-77.0647, 38.8918], [-77.0559, 38.893]]]}}, {"type": "Feature", "properties": {"fips": "11001000903", "gap_national": -20.3, "gap_stratum": -21.9, "burden": 0.3, "capacity": 27.6, "svi": 0.02, "top_decile_gap": 0, "stratum": "metropolitan", "scored": 1}, "geometry": {"type": "Polygon", "coordinates": [[[-77.0961, 38.9359], [-77.0968, 38.9458], [-77.0856, 38.9382], [-77.0932, 38.9326], [-77.101, 38.9352], [-77.0961, 38.9359]]]}}, {"type": "Feature", "properties": {"fips": "11001003802", "gap_national": -43.1, "gap_stratum": -45.5, "burden": 2.5, "capacity": 47.1, "svi": 0.2, "top_decile_gap": 0, "stratum": "metropolitan", "scored": 1}, "geometry": {"type": "Polygon", "coordinates": [[[-77.0399, 38.9245], [-77.0365, 38.9265], [-77.0365, 38.9227], [-77.0408, 38.9198], [-77.0421, 38.9231], [-77.0399, 38.9245]]]}}, {"type": "Feature", "properties": {"fips": "11001007202", "gap_national": -38.3, "gap_stratum": -40.8, "burden": 0.3, "capacity": 42.8, "svi": 0.02, "top_decile_gap": 0, "stratum": "metropolitan", "scored": 1}, "geometry": {"type": "Polygon", "coordinates": [[[-77.0091, 38.8815], [-77.0057, 38.8808], [-77.0042, 38.8765], [-77.0091, 38.8765], [-77.0091, 38.8815]]]}}, {"type": "Feature", "properties": {"fips": "11001007203", "gap_national": -37.9, "gap_stratum": -40.3, "burden": 2.0, "capacity": 43.0, "svi": 0.17, "top_decile_gap": 0, "stratum": "metropolitan", "scored": 1}, "geometry": {"type": "Polygon", "coordinates": [[[-76.9915, 38.8778], [-76.9916, 38.8765], [-77.0042, 38.8765], [-77.0057, 38.8808], [-76.9915, 38.8778]]]}}, {"type": "Feature", "properties": {"fips": "11001001004", "gap_national": -73.7, "gap_stratum": -73.0, "burden": 7.5, "capacity": 69.7, "svi": 0.22, "top_decile_gap": 0, "stratum": "metropolitan", "scored": 1}, "geometry": {"type": "Polygon", "coordinates": [[[-77.0886, 38.9432], [-77.0887, 38.9547], [-77.0914, 38.9566], [-77.0858, 38.9609], [-77.0785, 38.9458], [-77.0856, 38.9382], [-77.0931, 38.9432], [-77.0886, 38.9432]]]}}, {"type": "Feature", "properties": {"fips": "11001000600", "gap_national": -76.6, "gap_stratum": -76.2, "burden": 5.0, "capacity": 70.8, "svi": 0.19, "top_decile_gap": 0, "stratum": "metropolitan", "scored": 1}, "geometry": {"type": "Polygon", "coordinates": [[[-77.0617, 38.941], [-77.0568, 38.9326], [-77.0599, 38.9304], [-77.0726, 38.9319], [-77.0765, 38.9422], [-77.0617, 38.941]]]}}, {"type": "Feature", "properties": {"fips": "11001004802", "gap_national": -51.4, "gap_stratum": -53.1, "burden": 5.5, "capacity": 53.8, "svi": 0.62, "top_decile_gap": 0, "stratum": "metropolitan", "scored": 1}, "geometry": {"type": "Polygon", "coordinates": [[[-77.0219, 38.9086], [-77.0159, 38.9086], [-77.0148, 38.9054], [-77.0219, 38.9029], [-77.0219, 38.9086]]]}}, {"type": "Feature", "properties": {"fips": "11001007404", "gap_national": 2.4, "gap_stratum": 7.8, "burden": 46.8, "capacity": 47.1, "svi": 0.74, "top_decile_gap": 0, "stratum": "metropolitan", "scored": 1}, "geometry": {"type": "Polygon", "coordinates": [[[-76.9773, 38.8541], [-76.9728, 38.8512], [-76.9891, 38.8446], [-76.985, 38.849], [-76.992, 38.8538], [-76.9773, 38.8541]]]}}, {"type": "Feature", "properties": {"fips": "11001008701", "gap_national": -49.8, "gap_stratum": -51.5, "burden": 5.8, "capacity": 52.9, "svi": 0.23, "top_decile_gap": 0, "stratum": "metropolitan", "scored": 1}, "geometry": {"type": "Polygon", "coordinates": [[[-77.009, 38.9169], [-77.0035, 38.9187], [-77.0053, 38.9092], [-77.009, 38.9108], [-77.009, 38.9169]]]}}, {"type": "Feature", "properties": {"fips": "11001009603", "gap_national": 15.9, "gap_stratum": 19.6, "burden": 77.0, "capacity": 61.4, "svi": 0.89, "top_decile_gap": 0, "stratum": "metropolitan", "scored": 1}, "geometry": {"type": "Polygon", "coordinates": [[[-76.951, 38.8955], [-76.9376, 38.8899], [-76.9567, 38.8898], [-76.951, 38.8955]]]}}, {"type": "Feature", "properties": {"fips": "11001009904", "gap_national": 18.6, "gap_stratum": 23.8, "burden": 62.6, "capacity": 48.7, "svi": 0.9, "top_decile_gap": 0, "stratum": "metropolitan", "scored": 1}, "geometry": {"type": "Polygon", "coordinates": [[[-76.9329, 38.8856], [-76.932, 38.8898], [-76.9276, 38.8887], [-76.9293, 38.8807], [-76.933, 38.8815], [-76.9359, 38.886], [-76.9329, 38.8856]]]}}, {"type": "Feature", "properties": {"fips": "11001000802", "gap_national": -62.0, "gap_stratum": -63.1, "burden": 4.1, "capacity": 60.3, "svi": 0.27, "top_decile_gap": 0, "stratum": "metropolitan", "scored": 1}, "geometry": {"type": "Polygon", "coordinates": [[[-77.0887, 38.9164], [-77.0887, 38.9192], [-77.0826, 38.9193], [-77.0777, 38.9097], [-77.0793, 38.9016], [-77.0937, 38.9059], [-77.101, 38.911], [-77.0887, 38.9164]]]}}, {"type": "Feature", "properties": {"fips": "11001002400", "gap_national": -33.6, "gap_stratum": -35.0, "burden": 10.0, "capacity": 43.6, "svi": 0.61, "top_decile_gap": 0, "stratum": "metropolitan", "scored": 1}, "geometry": {"type": "Polygon", "coordinates": [[[-77.0194, 38.9463], [-77.019, 38.9374], [-77.0243, 38.9363], [-77.0266, 38.9461], [-77.0194, 38.9463]]]}}, {"type": "Feature", "properties": {"fips": "11001003400", "gap_national": -17.5, "gap_stratum": -18.9, "burden": 3.1, "capacity": 25.9, "svi": 0.47, "top_decile_gap": 0, "stratum": "metropolitan", "scored": 1}, "geometry": {"type": "Polygon", "coordinates": [[[-77.0121, 38.9263], [-77.0121, 38.9213], [-77.0149, 38.9207], [-77.0141, 38.9129], [-77.0219, 38.9163], [-77.023, 38.9272], [-77.0121, 38.9263]]]}}, {"type": "Feature", "properties": {"fips": "11001010400", "gap_national": 0.4, "gap_stratum": 6.5, "burden": 69.6, "capacity": 66.4, "svi": 0.83, "top_decile_gap": 0, "stratum": "metropolitan", "scored": 1}, "geometry": {"type": "Polygon", "coordinates": [[[-77.008, 38.8499], [-77.003, 38.8605], [-76.985, 38.849], [-76.9891, 38.8446], [-77.0023, 38.8425], [-77.0077, 38.8357], [-77.008, 38.8499]]]}}, {"type": "Feature", "properties": {"fips": "11001009000", "gap_national": -38.9, "gap_stratum": -30.3, "burden": 54.5, "capacity": 85.8, "svi": 0.45, "top_decile_gap": 0, "stratum": "metropolitan", "scored": 1}, "geometry": {"type": "Polygon", "coordinates": [[[-76.9577, 38.9308], [-76.9419, 38.9186], [-76.9565, 38.9176], [-76.955, 38.9183], [-76.9652, 38.9253], [-76.9577, 38.9308]]]}}, {"type": "Feature", "properties": {"fips": "11001001304", "gap_national": -58.2, "gap_stratum": -60.0, "burden": 1.4, "capacity": 57.0, "svi": 0.15, "top_decile_gap": 0, "stratum": "metropolitan", "scored": 1}, "geometry": {"type": "Polygon", "coordinates": [[[-77.0527, 38.9407], [-77.052, 38.9377], [-77.0479, 38.937], [-77.0483, 38.9348], [-77.0557, 38.9308], [-77.0617, 38.941], [-77.0527, 38.9407]]]}}, {"type": "Feature", "properties": {"fips": "11001007201", "gap_national": -41.1, "gap_stratum": -43.7, "burden": 0.5, "capacity": 45.1, "svi": 0.03, "top_decile_gap": 0, "stratum": "metropolitan", "scored": 1}, "geometry": {"type": "Polygon", "coordinates": [[[-76.9916, 38.8765], [-76.9901, 38.8713], [-77.0034, 38.8709], [-77.0055, 38.8687], [-77.0089, 38.8708], [-77.0091, 38.8765], [-76.9916, 38.8765]]]}}, {"type": "Feature", "properties": {"fips": "11001002503", "gap_national": -39.4, "gap_stratum": -41.7, "burden": 3.4, "capacity": 44.7, "svi": 0.59, "top_decile_gap": 0, "stratum": "metropolitan", "scored": 1}, "geometry": {"type": "Polygon", "coordinates": [[[-77.0297, 38.9419], [-77.0255, 38.9419], [-77.0252, 38.9351], [-77.0297, 38.9368], [-77.0297, 38.9419]]]}}, {"type": "Feature", "properties": {"fips": "11001007804", "gap_national": 23.0, "gap_stratum": 25.1, "burden": 81.9, "capacity": 60.0, "svi": 0.97, "top_decile_gap": 0, "stratum": "metropolitan", "scored": 1}, "geometry": {"type": "Polygon", "coordinates": [[[-76.9251, 38.8997], [-76.928, 38.8898], [-76.9349, 38.8898], [-76.9349, 38.895], [-76.9392, 38.9006], [-76.9251, 38.8997]]]}}, {"type": "Feature", "properties": {"fips": "11001001803", "gap_national": 25.4, "gap_stratum": 30.8, "burden": 60.2, "capacity": 41.5, "svi": 0.94, "top_decile_gap": 0, "stratum": "metropolitan", "scored": 1}, "geometry": {"type": "Polygon", "coordinates": [[[-77.0399, 38.9728], [-77.0334, 38.9723], [-77.0334, 38.962], [-77.0435, 38.9614], [-77.0475, 38.9646], [-77.0467, 38.9677], [-77.0399, 38.9728]]]}}, {"type": "Feature", "properties": {"fips": "11001007408", "gap_national": 67.3, "gap_stratum": 67.8, "burden": 86.2, "capacity": 30.2, "svi": 0.94, "top_decile_gap": 1, "stratum": "metropolitan", "scored": 1}, "geometry": {"type": "Polygon", "coordinates": [[[-76.9752, 38.8565], [-76.9718, 38.8569], [-76.97, 38.8527], [-76.9635, 38.8507], [-76.9688, 38.8493], [-76.9759, 38.8536], [-76.9752, 38.8565]]]}}, {"type": "Feature", "properties": {"fips": "11001009204", "gap_national": 31.9, "gap_stratum": 36.4, "burden": 66.9, "capacity": 42.6, "svi": 0.97, "top_decile_gap": 0, "stratum": "metropolitan", "scored": 1}, "geometry": {"type": "Polygon", "coordinates": [[[-77.0024, 38.9256], [-76.9945, 38.9256], [-76.996, 38.9214], [-77.0006, 38.9198], [-77.0024, 38.9256]]]}}, {"type": "Feature", "properties": {"fips": "11001004902", "gap_national": -43.3, "gap_stratum": -45.8, "burden": 1.6, "capacity": 46.9, "svi": 0.12, "top_decile_gap": 0, "stratum": "metropolitan", "scored": 1}, "geometry": {"type": "Polygon", "coordinates": [[[-77.027, 38.9086], [-77.0219, 38.9086], [-77.0219, 38.9029], [-77.027, 38.9039], [-77.027, 38.9086]]]}}, {"type": "Feature", "properties": {"fips": "11001007605", "gap_national": -10.0, "gap_stratum": -2.8, "burden": 67.7, "capacity": 72.4, "svi": 0.88, "top_decile_gap": 0, "stratum": "metropolitan", "scored": 1}, "geometry": {"type": "Polygon", "coordinates": [[[-76.9707, 38.8682], [-76.9688, 38.8607], [-76.9772, 38.8651], [-76.9844, 38.8666], [-76.9707, 38.8682]]]}}, {"type": "Feature", "properties": {"fips": "11001009102", "gap_national": -14.6, "gap_stratum": -9.5, "burden": 41.2, "capacity": 54.4, "svi": 0.91, "top_decile_gap": 0, "stratum": "metropolitan", "scored": 1}, "geometry": {"type": "Polygon", "coordinates": [[[-76.996, 38.9214], [-76.9791, 38.9277], [-76.9782, 38.9173], [-77.0017, 38.91], [-76.996, 38.9214]]]}}, {"type": "Feature", "properties": {"fips": "11001009201", "gap_national": -30.3, "gap_stratum": -32.2, "burden": 4.8, "capacity": 38.1, "svi": 0.63, "top_decile_gap": 0, "stratum": "metropolitan", "scored": 1}, "geometry": {"type": "Polygon", "coordinates": [[[-77.0037, 38.9297], [-76.9948, 38.9337], [-76.9945, 38.9256], [-77.0063, 38.927], [-77.0037, 38.9297]]]}}, {"type": "Feature", "properties": {"fips": "11001009511", "gap_national": 32.8, "gap_stratum": 39.2, "burden": 35.8, "capacity": 4.2, "svi": null, "top_decile_gap": 0, "stratum": "metropolitan", "scored": 1}, "geometry": {"type": "Polygon", "coordinates": [[[-76.9976, 38.9407], [-76.9948, 38.9337], [-77.001, 38.9312], [-77.0021, 38.9362], [-77.0064, 38.9366], [-77.008, 38.9424], [-76.9976, 38.9407]]]}}, {"type": "Feature", "properties": {"fips": "11001004402", "gap_national": -39.4, "gap_stratum": -41.8, "burden": 1.8, "capacity": 44.1, "svi": 0.34, "top_decile_gap": 0, "stratum": "metropolitan", "scored": 1}, "geometry": {"type": "Polygon", "coordinates": [[[-77.024, 38.917], [-77.0219, 38.9141], [-77.032, 38.9141], [-77.032, 38.917], [-77.024, 38.917]]]}}, {"type": "Feature", "properties": {"fips": "11001001301", "gap_national": -73.2, "gap_stratum": -72.8, "burden": 6.1, "capacity": 68.8, "svi": 0.33, "top_decile_gap": 0, "stratum": "metropolitan", "scored": 1}, "geometry": {"type": "Polygon", "coordinates": [[[-77.066, 38.9586], [-77.0581, 38.9567], [-77.0562, 38.961], [-77.0435, 38.9614], [-77.0405, 38.9596], [-77.0471, 38.9497], [-77.044, 38.9482], [-77.0497, 38.9438], [-77.0517, 38.9489], [-77.0657, 38.9479], [-77.0692, 38.9547], [-77.066, 38.9586]]]}}, {"type": "Feature", "properties": {"fips": "11001003200", "gap_national": -10.6, "gap_stratum": -10.2, "burden": 15.0, "capacity": 28.1, "svi": 0.72, "top_decile_gap": 0, "stratum": "metropolitan", "scored": 1}, "geometry": {"type": "Polygon", "coordinates": [[[-77.019, 38.9374], [-77.0178, 38.9279], [-77.023, 38.9272], [-77.0243, 38.9363], [-77.019, 38.9374]]]}}, {"type": "Feature", "properties": {"fips": "11001007100", "gap_national": -12.3, "gap_stratum": -10.2, "burden": 26.6, "capacity": 40.5, "svi": 0.6, "top_decile_gap": 0, "stratum": "metropolitan", "scored": 1}, "geometry": {"type": "Polygon", "coordinates": [[[-76.9915, 38.8829], [-76.978, 38.8769], [-76.9901, 38.8713], [-76.9915, 38.8829]]]}}, {"type": "Feature", "properties": {"fips": "11001007703", "gap_national": 7.7, "gap_stratum": 12.8, "burden": 72.1, "capacity": 63.5, "svi": 0.92, "top_decile_gap": 0, "stratum": "metropolitan", "scored": 1}, "geometry": {"type": "Polygon", "coordinates": [[[-76.953, 38.8898], [-76.9379, 38.8899], [-76.9458, 38.8809], [-76.9467, 38.8828], [-76.9575, 38.8836], [-76.953, 38.8898]]]}}]}